{
"type": "FeatureCollection",
"name": "PLAT-HATCH-LOTS-S3",
"crs": { "type": "name", "properties": { "name": "urn:ogc:def:crs:EPSG::3857" } },
"features": [
{ "type": "Feature", "properties": { "Layer": "PLAT-HATCH-LOTS-S3", "PaperSpace": null, "SubClasses": "AcDbEntity:AcDbHatch", "Linetype": null, "EntityHandle": "B2EA", "Text": "ANSI31" }, "geometry": { "type": "MultiPolygon", "coordinates": [ [ [ [ -10859469.872660445049405, 3005797.144147980492562 ], [ -10859509.578423200175166, 3005788.219325499609113 ], [ -10859502.181279618293047, 3005754.951269733253866 ], [ -10859462.475605703890324, 3005763.876050394028425 ], [ -10859469.872660445049405, 3005797.144147980492562 ] ] ] ] } },
{ "type": "Feature", "properties": { "Layer": "PLAT-HATCH-LOTS-S3", "PaperSpace": null, "SubClasses": "AcDbEntity:AcDbHatch", "Linetype": null, "EntityHandle": "B2F2", "Text": "ANSI31" }, "geometry": { "type": "MultiPolygon", "coordinates": [ [ [ [ -10859477.269750028848648, 3005830.412319184746593 ], [ -10859516.975601628422737, 3005821.48745488235727 ], [ -10859509.578423200175166, 3005788.219325499609113 ], [ -10859469.872660445049405, 3005797.144147980492562 ], [ -10859477.269750028848648, 3005830.412319184746593 ] ] ] ] } },
{ "type": "Feature", "properties": { "Layer": "PLAT-HATCH-LOTS-S3", "PaperSpace": null, "SubClasses": "AcDbEntity:AcDbHatch", "Linetype": null, "EntityHandle": "B2FA", "Text": "ANSI31" }, "geometry": { "type": "MultiPolygon", "coordinates": [ [ [ [ -10859484.666874455288053, 3005863.680564002133906 ], [ -10859524.372814901173115, 3005854.755657881963998 ], [ -10859516.975601626560092, 3005821.48745488235727 ], [ -10859477.269750028848648, 3005830.412319184746593 ], [ -10859484.666874455288053, 3005863.680564002133906 ] ] ] ] } },
{ "type": "Feature", "properties": { "Layer": "PLAT-HATCH-LOTS-S3", "PaperSpace": null, "SubClasses": "AcDbEntity:AcDbHatch", "Linetype": null, "EntityHandle": "B302", "Text": "ANSI31" }, "geometry": { "type": "MultiPolygon", "coordinates": [ [ [ [ -10859492.064033728092909, 3005896.948882437776774 ], [ -10859531.770063018426299, 3005888.023934495635331 ], [ -10859524.372814901173115, 3005854.755657881963998 ], [ -10859484.666874455288053, 3005863.680564002133906 ], [ -10859492.064033728092909, 3005896.948882437776774 ] ] ] ] } },
{ "type": "Feature", "properties": { "Layer": "PLAT-HATCH-LOTS-S3", "PaperSpace": null, "SubClasses": "AcDbEntity:AcDbHatch", "Linetype": null, "EntityHandle": "B30D", "Text": "ANSI31" }, "geometry": { "type": "MultiPolygon", "coordinates": [ [ [ [ -10859500.922240233048797, 3005936.788071389310062 ], [ -10859538.224063795059919, 3005910.758358250837773 ], [ -10859539.502391796559095, 3005903.641999460291117 ], [ -10859537.004470802843571, 3005900.023322437889874 ], [ -10859537.004470802843571, 3005900.023322437889874 ], [ -10859535.817035689949989, 3005898.178939403966069 ], [ -10859534.75023309700191, 3005896.261480621062219 ], [ -10859533.808494279161096, 3005894.278910902794451 ], [ -10859532.995730992406607, 3005892.239465495571494 ], [ -10859532.315319251269102, 3005890.151615911629051 ], [ -10859531.770085299387574, 3005888.024034705478698 ], [ -10859531.770063018426299, 3005888.023934495635331 ], [ -10859492.064033728092909, 3005896.948882437776774 ], [ -10859500.922240233048797, 3005936.788071389310062 ] ] ] ] } },
{ "type": "Feature", "properties": { "Layer": "PLAT-HATCH-LOTS-S3", "PaperSpace": null, "SubClasses": "AcDbEntity:AcDbHatch", "Linetype": null, "EntityHandle": "B315", "Text": "ANSI31" }, "geometry": { "type": "MultiPolygon", "coordinates": [ [ [ [ -10859544.540430907160044, 3005734.071228878572583 ], [ -10859568.067482601851225, 3005737.210534540936351 ], [ -10859573.419986294582486, 3005696.659111583139747 ], [ -10859549.893000958487391, 3005693.519823849201202 ], [ -10859544.540430907160044, 3005734.071228878572583 ] ] ] ] } },
{ "type": "Feature", "properties": { "Layer": "PLAT-HATCH-LOTS-S3", "PaperSpace": null, "SubClasses": "AcDbEntity:AcDbHatch", "Linetype": null, "EntityHandle": "B31E", "Text": "ANSI31" }, "geometry": { "type": "MultiPolygon", "coordinates": [ [ [ [ -10859568.067482601851225, 3005737.210534540936351 ], [ -10859570.636720050126314, 3005737.553355406969786 ], [ -10859570.636720050126314, 3005737.553355406969786 ], [ -10859572.827389365062118, 3005737.919426294974983 ], [ -10859574.989525074139237, 3005738.428900787606835 ], [ -10859577.113851495087147, 3005739.079593224916607 ], [ -10859579.191255146637559, 3005739.868712111376226 ], [ -10859581.212823843583465, 3005740.792872117366642 ], [ -10859583.16988493129611, 3005741.848108568694443 ], [ -10859585.054042488336563, 3005743.029894462786615 ], [ -10859586.857213351875544, 3005744.333159908652306 ], [ -10859618.727463126182556, 3005702.704532700590789 ], [ -10859573.419986294582486, 3005696.659111583139747 ], [ -10859568.067482601851225, 3005737.210534540936351 ] ] ] ] } },
{ "type": "Feature", "properties": { "Layer": "PLAT-HATCH-LOTS-S3", "PaperSpace": null, "SubClasses": "AcDbEntity:AcDbHatch", "Linetype": null, "EntityHandle": "B326", "Text": "ANSI31" }, "geometry": { "type": "MultiPolygon", "coordinates": [ [ [ [ -10859586.857213351875544, 3005744.333159908652306, 0.0 ], [ -10859588.571656147018075, 3005745.752308852039278, 0.0 ], [ -10859590.190022071823478, 3005747.281257340684533, 0.0 ], [ -10859591.70536825619638, 3005748.913446180988103, 0.0 ], [ -10859593.111193776130676, 3005750.641873255837709, 0.0 ], [ -10859594.401467546820641, 3005752.459123582113534, 0.0 ], [ -10859595.570654202252626, 3005754.357401123736054, 0.0 ], [ -10859596.613737836480141, 3005756.328562227077782, 0.0 ], [ -10859597.526243522763252, 3005758.364150554407388, 0.0 ], [ -10859597.526243520900607, 3005758.364150554407388, 0.0 ], [ -10859635.14614774286747, 3005742.785565956495702, 0.0 ], [ -10859618.727463126182556, 3005702.704532702919096, 0.0 ], [ -10859586.857213351875544, 3005744.333159908652306, 0.0 ] ] ] ] } },
{ "type": "Feature", "properties": { "Layer": "PLAT-HATCH-LOTS-S3", "PaperSpace": null, "SubClasses": "AcDbEntity:AcDbHatch", "Linetype": null, "EntityHandle": "B32E", "Text": "ANSI31" }, "geometry": { "type": "MultiPolygon", "coordinates": [ [ [ [ -10859606.564577946439385, 3005780.428499882575125 ], [ -10859644.184530964121222, 3005764.849866866599768 ], [ -10859635.14614774286747, 3005742.785565956495702 ], [ -10859597.526243520900607, 3005758.364150554407388 ], [ -10859606.564577946439385, 3005780.428499882575125 ] ] ] ] } },
{ "type": "Feature", "properties": { "Layer": "PLAT-HATCH-LOTS-S3", "PaperSpace": null, "SubClasses": "AcDbEntity:AcDbHatch", "Linetype": null, "EntityHandle": "B336", "Text": "ANSI31" }, "geometry": { "type": "MultiPolygon", "coordinates": [ [ [ [ -10859615.602940607815981, 3005802.492877464275807 ], [ -10859653.222942423075438, 3005786.914196035824716 ], [ -10859644.184530964121222, 3005764.849866866599768 ], [ -10859606.564577946439385, 3005780.428499882575125 ], [ -10859615.602940607815981, 3005802.492877464275807 ] ] ] ] } },
{ "type": "Feature", "properties": { "Layer": "PLAT-HATCH-LOTS-S3", "PaperSpace": null, "SubClasses": "AcDbEntity:AcDbHatch", "Linetype": null, "EntityHandle": "B33E", "Text": "ANSI31" }, "geometry": { "type": "MultiPolygon", "coordinates": [ [ [ [ -10859624.641331506893039, 3005824.557283302769065 ], [ -10859662.26138211786747, 3005808.978553461842239 ], [ -10859653.222942423075438, 3005786.914196035824716 ], [ -10859615.602940607815981, 3005802.492877464275807 ], [ -10859624.641331506893039, 3005824.557283302769065 ] ] ] ] } },
{ "type": "Feature", "properties": { "Layer": "PLAT-HATCH-LOTS-S3", "PaperSpace": null, "SubClasses": "AcDbEntity:AcDbHatch", "Linetype": null, "EntityHandle": "B360", "Text": "ANSI31" }, "geometry": { "type": "MultiPolygon", "coordinates": [ [ [ [ -10859630.882147876545787, 3005839.792261754628271, 0.0 ], [ -10859631.054262174293399, 3005840.177998222410679, 0.0 ], [ -10859631.249824160709977, 3005840.552267418242991, 0.0 ], [ -10859631.4680818580091, 3005840.913630199152976, 0.0 ], [ -10859631.708196023479104, 3005841.260697041172534, 0.0 ], [ -10859631.969243366271257, 3005841.592133408877999, 0.0 ], [ -10859632.250220106914639, 3005841.906664846930653, 0.0 ], [ -10859632.550045831128955, 3005842.203081917949021, 0.0 ], [ -10859632.867567643523216, 3005842.480244833044708, 0.0 ], [ -10859632.867567643523216, 3005842.480244833044708, 0.0 ], [ -10859633.701091816648841, 3005843.210160471033305, 0.0 ], [ -10859634.485534561797976, 3005843.993138979189098, 0.0 ], [ -10859635.217560917139053, 3005844.825851647183299, 0.0 ], [ -10859635.894058771431446, 3005845.704758323729038, 0.0 ], [ -10859635.894058771431446, 3005845.704758323729038, 0.0 ], [ -10859671.29985005222261, 3005831.042939146980643, 0.0 ], [ -10859662.26138211786747, 3005808.978553461842239, 0.0 ], [ -10859624.641331506893039, 3005824.557283307891339, 0.0 ], [ -10859630.882147876545787, 3005839.792261754628271, 0.0 ] ] ] ] } },
{ "type": "Feature", "properties": { "Layer": "PLAT-HATCH-LOTS-S3", "PaperSpace": null, "SubClasses": "AcDbEntity:AcDbHatch", "Linetype": null, "EntityHandle": "B368", "Text": "ANSI31" }, "geometry": { "type": "MultiPolygon", "coordinates": [ [ [ [ -10859638.416815709322691, 3005860.511427517980337 ], [ -10859689.584293844178319, 3005875.678147085942328 ], [ -10859671.29985005222261, 3005831.042939146980643 ], [ -10859635.894058771431446, 3005845.704758323729038 ], [ -10859635.894058771431446, 3005845.704758323729038 ], [ -10859636.511960629373789, 3005846.625815990380943 ], [ -10859637.068870726972818, 3005847.585390305146575 ], [ -10859637.562422964721918, 3005848.579404426272959 ], [ -10859637.990520421415567, 3005849.603635196108371 ], [ -10859638.351344276219606, 3005850.653731082566082 ], [ -10859638.643361516296864, 3005851.725230653770268 ], [ -10859638.865331461653113, 3005852.813581547699869 ], [ -10859639.016311032697558, 3005853.914159798528999 ], [ -10859639.095658766105771, 3005855.022289487998933 ], [ -10859639.103037524968386, 3005856.133262624498457 ], [ -10859639.038415942341089, 3005857.242359121795744 ], [ -10859638.902068553492427, 3005858.344866868108511 ], [ -10859638.694574628025293, 3005859.436101741623133 ], [ -10859638.416815709322691, 3005860.511427517980337 ] ] ] ] } },
{ "type": "Feature", "properties": { "Layer": "PLAT-HATCH-LOTS-S3", "PaperSpace": null, "SubClasses": "AcDbEntity:AcDbHatch", "Linetype": null, "EntityHandle": "B370", "Text": "ANSI31" }, "geometry": { "type": "MultiPolygon", "coordinates": [ [ [ [ -10859647.940083211287856, 3005904.738695762585849 ], [ -10859689.584293844178319, 3005875.678147085942328 ], [ -10859638.416815709322691, 3005860.511427517980337 ], [ -10859638.416815709322691, 3005860.511427517980337 ], [ -10859638.056688357144594, 3005861.602524035610259 ], [ -10859637.624229183420539, 3005862.666731355246156 ], [ -10859637.121405441313982, 3005863.69920836482197 ], [ -10859636.550504481419921, 3005864.695258270483464 ], [ -10859635.914123337715864, 3005865.650350003037602 ], [ -10859635.215156918391585, 3005866.560138809960335 ], [ -10859634.456784836947918, 3005867.42048601154238 ], [ -10859633.642456945031881, 3005868.227477848529816 ], [ -10859632.775877645239234, 3005868.977443273179233 ], [ -10859631.860989032313228, 3005869.666970659047365 ], [ -10859630.901952967047691, 3005870.292923298664391 ], [ -10859629.903132136911154, 3005870.852453707717359 ], [ -10859628.869070215150714, 3005871.343016545288265 ], [ -10859627.80447119101882, 3005871.762380214873701 ], [ -10859626.714177971705794, 3005872.10863700741902 ], [ -10859625.603150341659784, 3005872.380211780313402 ], [ -10859647.940083211287856, 3005904.738695762585849 ] ] ] ] } },
{ "type": "Feature", "properties": { "Layer": "PLAT-HATCH-LOTS-S3", "PaperSpace": null, "SubClasses": "AcDbEntity:AcDbHatch", "Linetype": null, "EntityHandle": "B37A", "Text": "ANSI31" }, "geometry": { "type": "MultiPolygon", "coordinates": [ [ [ [ -10859628.442399810999632, 3005918.344686312135309 ], [ -10859647.940083211287856, 3005904.738695762585849 ], [ -10859625.603150341659784, 3005872.380211783573031 ], [ -10859625.603150341659784, 3005872.380211783573031 ], [ -10859624.817788017913699, 3005872.524884880986065 ], [ -10859624.026521638035774, 3005872.632217416074127 ], [ -10859624.026521638035774, 3005872.632217416074127 ], [ -10859623.610228659585118, 3005872.691868319176137 ], [ -10859623.198413331061602, 3005872.7773473020643 ], [ -10859622.792659237980843, 3005872.888325662817806 ], [ -10859622.394526666030288, 3005873.024376643821597 ], [ -10859622.005546586588025, 3005873.184977079741657 ], [ -10859621.627214781939983, 3005873.369509402196854 ], [ -10859621.260986084118485, 3005873.577264009509236 ], [ -10859620.908268785104156, 3005873.807442007120699 ], [ -10859605.244093740358949, 3005884.7382692694664 ], [ -10859628.442399810999632, 3005918.344686312135309 ] ] ] ] } },
{ "type": "Feature", "properties": { "Layer": "PLAT-HATCH-LOTS-S3", "PaperSpace": null, "SubClasses": "AcDbEntity:AcDbHatch", "Linetype": null, "EntityHandle": "B382", "Text": "ANSI31" }, "geometry": { "type": "MultiPolygon", "coordinates": [ [ [ [ -10859608.944678846746683, 3005931.95066262036562 ], [ -10859628.442399810999632, 3005918.344686312135309 ], [ -10859605.244093740358949, 3005884.7382692694664 ], [ -10859585.746396819129586, 3005898.344181175809354 ], [ -10859608.944678846746683, 3005931.95066262036562 ] ] ] ] } },
{ "type": "Feature", "properties": { "Layer": "PLAT-HATCH-LOTS-S3", "PaperSpace": null, "SubClasses": "AcDbEntity:AcDbHatch", "Linetype": null, "EntityHandle": "B38A", "Text": "ANSI31" }, "geometry": { "type": "MultiPolygon", "coordinates": [ [ [ [ -10859589.4469203222543, 3005945.556624689605087 ], [ -10859608.944678846746683, 3005931.95066262036562 ], [ -10859585.746396820992231, 3005898.344181175809354 ], [ -10859566.24866234138608, 3005911.950078847818077 ], [ -10859589.4469203222543, 3005945.556624689605087 ] ] ] ] } },
{ "type": "Feature", "properties": { "Layer": "PLAT-HATCH-LOTS-S3", "PaperSpace": null, "SubClasses": "AcDbEntity:AcDbHatch", "Linetype": null, "EntityHandle": "B392", "Text": "ANSI31" }, "geometry": { "type": "MultiPolygon", "coordinates": [ [ [ [ -10859569.949124235659838, 3005959.162572518456727 ], [ -10859589.4469203222543, 3005945.556624689605087 ], [ -10859566.248662339523435, 3005911.950078842230141 ], [ -10859546.750890295952559, 3005925.555962269194424 ], [ -10859569.949124235659838, 3005959.162572518456727 ] ] ] ] } },
{ "type": "Feature", "properties": { "Layer": "PLAT-HATCH-LOTS-S3", "PaperSpace": null, "SubClasses": "AcDbEntity:AcDbHatch", "Linetype": null, "EntityHandle": "B39A", "Text": "ANSI31" }, "geometry": { "type": "MultiPolygon", "coordinates": [ [ [ [ -10859550.451290583238006, 3005972.768506110180169 ], [ -10859569.949124235659838, 3005959.162572518456727 ], [ -10859546.750890295952559, 3005925.555962269194424 ], [ -10859527.253080690279603, 3005939.161831456236541 ], [ -10859550.451290583238006, 3005972.768506110180169 ] ] ] ] } },
{ "type": "Feature", "properties": { "Layer": "PLAT-HATCH-LOTS-S3", "PaperSpace": null, "SubClasses": "AcDbEntity:AcDbHatch", "Linetype": null, "EntityHandle": "B3A5", "Text": "ANSI31" }, "geometry": { "type": "MultiPolygon", "coordinates": [ [ [ [ -10859527.421759992837906, 3005790.344000813085586 ], [ -10859567.127467270940542, 3005781.419019047170877 ], [ -10859560.908287594094872, 3005753.449304339941591 ], [ -10859542.310184322297573, 3005750.967681032139808 ], [ -10859542.310184322297573, 3005750.967681032139808 ], [ -10859541.321334207430482, 3005750.865295515395701 ], [ -10859540.328215442597866, 3005750.821361943613738 ], [ -10859539.3342429343611, 3005750.836031381040812 ], [ -10859538.34283453784883, 3005750.909253391902894 ], [ -10859537.35739928111434, 3005751.040776194538921 ], [ -10859536.381325656548142, 3005751.23014753870666 ], [ -10859524.528416767716408, 3005753.894409449305385 ], [ -10859520.674787871539593, 3005760.000223064329475 ], [ -10859527.421759992837906, 3005790.344000813085586 ] ] ] ] } },
{ "type": "Feature", "properties": { "Layer": "PLAT-HATCH-LOTS-S3", "PaperSpace": null, "SubClasses": "AcDbEntity:AcDbHatch", "Linetype": null, "EntityHandle": "B3AD", "Text": "ANSI31" }, "geometry": { "type": "MultiPolygon", "coordinates": [ [ [ [ -10859534.818981559947133, 3005823.612125701736659 ], [ -10859574.524777682498097, 3005814.68710211571306 ], [ -10859567.127467270940542, 3005781.419019047170877 ], [ -10859527.421759992837906, 3005790.344000813085586 ], [ -10859534.818981559947133, 3005823.612125701736659 ] ] ] ] } },
{ "type": "Feature", "properties": { "Layer": "PLAT-HATCH-LOTS-S3", "PaperSpace": null, "SubClasses": "AcDbEntity:AcDbHatch", "Linetype": null, "EntityHandle": "B3B5", "Text": "ANSI31" }, "geometry": { "type": "MultiPolygon", "coordinates": [ [ [ [ -10859542.216237971559167, 3005856.880324207711965 ], [ -10859581.922122936695814, 3005847.955258798319846 ], [ -10859574.524777682498097, 3005814.68710211571306 ], [ -10859534.818981559947133, 3005823.612125701736659 ], [ -10859542.216237971559167, 3005856.880324207711965 ] ] ] ] } },
{ "type": "Feature", "properties": { "Layer": "PLAT-HATCH-LOTS-S3", "PaperSpace": null, "SubClasses": "AcDbEntity:AcDbHatch", "Linetype": null, "EntityHandle": "B3C0", "Text": "ANSI31" }, "geometry": { "type": "MultiPolygon", "coordinates": [ [ [ [ -10859548.314227079972625, 3005884.305174530018121, 0.0 ], [ -10859548.58684441074729, 3005885.368973535951227, 0.0 ], [ -10859548.927051646634936, 3005886.412906448822469, 0.0 ], [ -10859549.33343562297523, 3005887.432636896613985, 0.0 ], [ -10859549.804308289662004, 3005888.423929046839476, 0.0 ], [ -10859550.337713710963726, 3005889.382665179669857, 0.0 ], [ -10859550.931436197832227, 3005890.304862822405994, 0.0 ], [ -10859550.931436197832227, 3005890.304862822405994, 0.0 ], [ -10859553.430193772539496, 3005893.92474414780736, 0.0 ], [ -10859560.406972026452422, 3005895.278756950050592, 0.0 ], [ -10859588.141385836526752, 3005875.925149316899478, 0.0 ], [ -10859581.922122936695814, 3005847.955258798319846, 0.0 ], [ -10859542.216237971559167, 3005856.880324207711965, 0.0 ], [ -10859548.314227079972625, 3005884.305174530018121, 0.0 ] ] ] ] } }
]
}
