{
"type": "FeatureCollection",
"name": "PLAT-HATCH-ROW-S1",
"crs": { "type": "name", "properties": { "name": "urn:ogc:def:crs:EPSG::3857" } },
"features": [
{ "type": "Feature", "properties": { "Layer": "PLAT-HATCH-ROW-S1", "PaperSpace": null, "SubClasses": "AcDbEntity:AcDbHatch", "Linetype": null, "EntityHandle": "110E", "Text": "ANSI31" }, "geometry": { "type": "MultiPolygon", "coordinates": [ [ [ [ -10859475.470980709418654, 3005296.504829558543861, 0.0 ], [ -10859482.251099690794945, 3005301.354493634775281, 0.0 ], [ -10859488.705722898244858, 3005306.634090088773519, 0.0 ], [ -10859494.807926643639803, 3005312.321597309783101, 0.0 ], [ -10859494.807926643639803, 3005312.321597309783101, 0.0 ], [ -10859523.391251096501946, 3005340.742129136808217, 0.0 ], [ -10859523.391251096501946, 3005340.742129136808217, 0.0 ], [ -10859524.276785917580128, 3005341.685748343355954, 0.0 ], [ -10859525.095296354964375, 3005342.688682022038847, 0.0 ], [ -10859525.842863075435162, 3005343.746127794962376, 0.0 ], [ -10859526.515906458720565, 3005344.853022255003452, 0.0 ], [ -10859527.111203718930483, 3005346.004065212793648, 0.0 ], [ -10859527.625904344022274, 3005347.1937450831756, 0.0 ], [ -10859528.057543747127056, 3005348.416365275159478, 0.0 ], [ -10859528.404055068269372, 3005349.666071456857026, 0.0 ], [ -10859528.663779061287642, 3005350.936879602260888, 0.0 ], [ -10859528.835472052916884, 3005352.222704634536058, 0.0 ], [ -10859528.918311893939972, 3005353.517389565706253, 0.0 ], [ -10859528.911901891231537, 3005354.814734988380224, 0.0 ], [ -10859528.816272716969252, 3005356.108528746757656, 0.0 ], [ -10859528.631882248446345, 3005357.3925756867975, 0.0 ], [ -10859528.359613392502069, 3005358.660727323964238, 0.0 ], [ -10859528.000769849866629, 3005359.906911288853735, 0.0 ], [ -10859527.55706986784935, 3005361.125160388182849, 0.0 ], [ -10859527.55706986784935, 3005361.125160388182849, 0.0 ], [ -10859518.942333679646254, 3005384.735791674815118, 0.0 ], [ -10859511.93467247672379, 3005408.877959645818919, 0.0 ], [ -10859506.566151903942227, 3005433.441225649788976, 0.0 ], [ -10859502.861339595168829, 3005458.313223545439541, 0.0 ], [ -10859500.837192628532648, 3005483.380173711106181, 0.0 ], [ -10859517.960420731455088, 3005480.51381512824446, 0.0 ], [ -10859517.960420731455088, 3005480.51381512824446, 0.0 ], [ -10859520.115416064858437, 3005456.804389195516706, 0.0 ], [ -10859523.846861455589533, 3005433.293666262179613, 0.0 ], [ -10859529.137950757518411, 3005410.087486318778247, 0.0 ], [ -10859535.964856896549463, 3005387.290317346807569, 0.0 ], [ -10859544.296839267015457, 3005365.004785069264472, 0.0 ], [ -10859544.296839267015457, 3005365.004785069264472, 0.0 ], [ -10859545.123714858666062, 3005362.782086421269923, 0.0 ], [ -10859545.794781403616071, 3005360.506932246498764, 0.0 ], [ -10859546.306786714121699, 3005358.19034889806062, 0.0 ], [ -10859546.657249482348561, 3005355.843563488218933, 0.0 ], [ -10859546.844471305608749, 3005353.477949499618262, 0.0 ], [ -10859546.867544915527105, 3005351.104971651453525, 0.0 ], [ -10859546.726358570158482, 3005348.736130341887474, 0.0 ], [ -10859546.421596597880125, 3005346.382905905600637, 0.0 ], [ -10859545.954736074432731, 3005344.056702986359596, 0.0 ], [ -10859545.328039668500423, 3005341.76879525417462, 0.0 ], [ -10859544.544544670730829, 3005339.530270773451775, 0.0 ], [ -10859543.608048273250461, 3005337.35197827918455, 0.0 ], [ -10859542.523089168593287, 3005335.244474579580128, 0.0 ], [ -10859541.294925548136234, 3005333.217973407823592, 0.0 ], [ -10859539.929509617388248, 3005331.282295925077051, 0.0 ], [ -10859538.433458751067519, 3005329.446823112200946, 0.0 ], [ -10859536.814023427665234, 3005327.720450321678072, 0.0 ], [ -10859472.91682687215507, 3005264.187132243998349, 0.0 ], [ -10859448.810326930135489, 3005240.217761819716543, 0.0 ], [ -10859435.698485666885972, 3005253.548437719233334, 0.0 ], [ -10859447.751725660637021, 3005265.533145601395518, 0.0 ], [ -10859447.751725660637021, 3005265.533145601395518, 0.0 ], [ -10859447.887584818527102, 3005267.28574681840837, 0.0 ], [ -10859448.142908547073603, 3005269.02481825882569, 0.0 ], [ -10859448.516489740461111, 3005270.742137738503516, 0.0 ], [ -10859449.006562182679772, 3005272.429585899226367, 0.0 ], [ -10859449.610808892175555, 3005274.079184615053236, 0.0 ], [ -10859450.32637307792902, 3005275.683134695049375, 0.0 ], [ -10859451.149871645495296, 3005277.233852780424058, 0.0 ], [ -10859452.077411191537976, 3005278.724007172510028, 0.0 ], [ -10859453.104606410488486, 3005280.146552512422204, 0.0 ], [ -10859454.226600831374526, 3005281.494763090740889, 0.0 ], [ -10859455.438089767470956, 3005282.762264642864466, 0.0 ], [ -10859460.978651547804475, 3005288.174084146972746, 0.0 ], [ -10859460.978651547804475, 3005288.174084146972746, 0.0 ], [ -10859462.138350090011954, 3005289.424674348440021, 0.0 ], [ -10859463.378594679757953, 3005290.594529741909355, 0.0 ], [ -10859464.69383791834116, 3005291.678417725488544, 0.0 ], [ -10859466.078196948394179, 3005292.671490220353007, 0.0 ], [ -10859467.525479760020971, 3005293.569305348675698, 0.0 ], [ -10859469.029212897643447, 3005294.367847308516502, 0.0 ], [ -10859470.582670403644443, 3005295.063544321805239, 0.0 ], [ -10859472.17890390753746, 3005295.653284636326134, 0.0 ], [ -10859473.810773709788918, 3005296.134430414065719, 0.0 ], [ -10859475.470980709418654, 3005296.504829558543861, 0.0 ] ] ] ] } }
]
}
