{
"type": "FeatureCollection",
"name": "PLAT-HATCH-CAMINATA-S1",
"crs": { "type": "name", "properties": { "name": "urn:ogc:def:crs:EPSG::3857" } },
"features": [
{ "type": "Feature", "properties": { "Layer": "PLAT-HATCH-CAMINATA-S1", "PaperSpace": null, "SubClasses": "AcDbEntity:AcDbHatch", "Linetype": null, "EntityHandle": "113A", "Text": "ANSI31" }, "geometry": { "type": "MultiPolygon", "coordinates": [ [ [ [ -10859364.57075010612607, 3005465.19602828565985 ], [ -10859364.570578129962087, 3005465.197331054136157 ], [ -10859374.653399234637618, 3005466.542786559090018 ], [ -10859395.853397630155087, 3005305.944411433767527 ], [ -10859385.767943810671568, 3005304.619804233312607 ], [ -10859364.57075010612607, 3005465.19602828565985 ] ] ] ] } }
]
}
