{
"type": "FeatureCollection",
"name": "PLAT-HATCH-STREET-S3",
"crs": { "type": "name", "properties": { "name": "urn:ogc:def:crs:EPSG::3857" } },
"features": [
{ "type": "Feature", "properties": { "Layer": "PLAT-HATCH-STREET-S3", "PaperSpace": null, "SubClasses": "AcDbEntity:AcDbHatch", "Linetype": null, "EntityHandle": "B403", "Text": "ANSI31" }, "geometry": { "type": "MultiPolygon", "coordinates": [ [ [ [ -10859540.835592532530427, 3005903.290068267844617 ], [ -10859539.557242402806878, 3005910.406407430302352 ], [ -10859502.255484564229846, 3005936.435935930814594 ], [ -10859500.771255297586322, 3005937.471642449498177 ], [ -10859500.771255297586322, 3005937.471642449498177 ], [ -10859499.828148107975721, 3005938.184569283854216 ], [ -10859498.936647700145841, 3005938.961728374008089 ], [ -10859498.101072870194912, 3005939.799354860559106 ], [ -10859497.325471477583051, 3005940.693390971515328 ], [ -10859496.613600853830576, 3005941.639505641534925 ], [ -10859495.968909597024322, 3005942.633115533739328 ], [ -10859495.394520858302712, 3005943.66940721264109 ], [ -10859494.893217226490378, 3005944.743360481690615 ], [ -10859494.467427231371403, 3005945.84977268287912 ], [ -10859494.119213586673141, 3005946.983283926732838 ], [ -10859493.850263200700283, 3005948.138403035700321 ], [ -10859493.661878993734717, 3005949.309534148778766 ], [ -10859493.554973594844341, 3005950.491003836039454 ], [ -10859493.530064921826124, 3005951.677088583819568 ], [ -10859493.58727366104722, 3005952.862042516469955 ], [ -10859493.726322688162327, 3005954.040125237312168 ], [ -10859493.946538414806128, 3005955.205629619769752 ], [ -10859494.246854050084949, 3005956.352909484878182 ], [ -10859494.625814752653241, 3005957.476406934205443 ], [ -10859495.081584705039859, 3005958.570679275784642 ], [ -10859495.611955985426903, 3005959.630425392184407 ], [ -10859496.21435927413404, 3005960.650511426385492 ], [ -10859496.885876288637519, 3005961.625995652284473 ], [ -10859497.623253939673305, 3005962.552152403630316 ], [ -10859498.422920072451234, 3005963.424494981300086 ], [ -10859499.281000783666968, 3005964.238797387573868 ], [ -10859500.193339176476002, 3005964.991114780306816 ], [ -10859501.15551551245153, 3005965.677802617661655 ], [ -10859502.162868607789278, 3005966.295534280128777 ], [ -10859503.21051842533052, 3005966.84131720662117 ], [ -10859504.293389713391662, 3005967.312507385388017 ], [ -10859505.406236590817571, 3005967.706822165288031 ], [ -10859506.543667953461409, 3005968.022351312916726 ], [ -10859507.700173607096076, 3005968.257566265296191 ], [ -10859508.87015094794333, 3005968.411327534355223 ], [ -10859510.047932110726833, 3005968.482890238519758 ], [ -10859511.227811424061656, 3005968.471907695755363 ], [ -10859512.404073052108288, 3005968.378433105535805 ], [ -10859513.571018682792783, 3005968.202919303439558 ], [ -10859514.722995139658451, 3005967.946216554380953 ], [ -10859515.854421760886908, 3005967.609568444546312 ], [ -10859516.959817439317703, 3005967.194605838507414 ], [ -10859518.033827170729637, 3005966.703338997904211 ], [ -10859519.071248004212976, 3005966.138147841673344 ], [ -10859520.067054240033031, 3005965.501770396716893 ], [ -10859521.016421778127551, 3005964.797289553098381 ], [ -10859521.914751490578055, 3005964.028118123300374 ], [ -10859522.757691498845816, 3005963.197982310783118 ], [ -10859523.541158258914948, 3005962.310903644189239 ], [ -10859524.408097768202424, 3005941.725302857346833 ], [ -10859528.586197355762124, 3005938.809781988151371 ], [ -10859548.083972606807947, 3005925.204009312205017 ], [ -10859567.581710260361433, 3005911.59822240518406 ], [ -10859587.079410320147872, 3005897.992421266622841 ], [ -10859606.577072788029909, 3005884.386605897918344 ], [ -10859622.241220133379102, 3005873.455856197979301 ], [ -10859622.241220133379102, 3005873.455856197979301 ], [ -10859622.593936743214726, 3005873.225679912604392 ], [ -10859622.960164606571198, 3005873.01792701613158 ], [ -10859623.338495433330536, 3005872.833396398928016 ], [ -10859623.727474387735128, 3005872.672797650564462 ], [ -10859624.125605702400208, 3005872.536748339422047 ], [ -10859624.53135840408504, 3005872.425771617796272 ], [ -10859624.94317221455276, 3005872.340294244233519 ], [ -10859625.35946355201304, 3005872.280644903890789 ], [ -10859625.35946355201304, 3005872.280644903890789 ], [ -10859626.150726793333888, 3005872.173315339256078 ], [ -10859626.936086148023605, 3005872.02864526771009 ], [ -10859626.936086148023605, 3005872.02864526771009 ], [ -10859628.047109842300415, 3005871.757074915803969 ], [ -10859629.137399511411786, 3005871.410822635982186 ], [ -10859630.201995385810733, 3005870.991463546641171 ], [ -10859631.236054573208094, 3005870.500905335415155 ], [ -10859632.234873097389936, 3005869.941379578318447 ], [ -10859633.193907298147678, 3005869.315431594848633 ], [ -10859634.108794491738081, 3005868.62590884976089 ], [ -10859634.975372824817896, 3005867.875948026310652 ], [ -10859635.789700208231807, 3005867.068960732780397 ], [ -10859636.548072243109345, 3005866.208617994561791 ], [ -10859637.247039075940847, 3005865.298833554144949 ], [ -10859637.883421093225479, 3005864.343746065162122 ], [ -10859638.454323379322886, 3005863.347700262907892 ], [ -10859638.957148894667625, 3005862.315227201674134 ], [ -10859639.389610286802053, 3005861.251023654360324 ], [ -10859639.749740285798907, 3005860.15993071673438 ], [ -10859639.749740285798907, 3005860.15993071673438 ], [ -10859640.027502158656716, 3005859.084608202800155 ], [ -10859640.234999420121312, 3005857.993376378901303 ], [ -10859640.371350506320596, 3005856.890871460083872 ], [ -10859640.435976136475801, 3005855.781777560710907 ], [ -10859640.428601756691933, 3005854.67080677812919 ], [ -10859640.349258713424206, 3005853.562679180409759 ], [ -10859640.19828412681818, 3005852.462102761492133 ], [ -10859639.976319435983896, 3005851.373753427993506 ], [ -10859639.6843077018857, 3005850.302255138289183 ], [ -10859639.323489578440785, 3005849.252160251140594 ], [ -10859638.895398052409291, 3005848.227930187247694 ], [ -10859638.401851924136281, 3005847.233916483819485 ], [ -10859637.844948086887598, 3005846.274342296645045 ], [ -10859637.227052612230182, 3005845.353284462355077 ], [ -10859637.227052612230182, 3005845.353284462355077 ], [ -10859636.550575187429786, 3005844.474394275341183 ], [ -10859635.818571468815207, 3005843.641695901285857 ], [ -10859635.034153351560235, 3005842.858729299157858 ], [ -10859634.200655549764633, 3005842.128822996281087 ], [ -10859634.200655549764633, 3005842.128822996281087 ], [ -10859633.883124658837914, 3005841.851656229700893 ], [ -10859633.583290556445718, 3005841.555234207771719 ], [ -10859633.302306229248643, 3005841.240696795750409 ], [ -10859633.041252177208662, 3005840.909253525082022 ], [ -10859632.801132256165147, 3005840.562178929336369 ], [ -10859632.58286982960999, 3005840.200807656161487 ], [ -10859632.3873041998595, 3005839.826529327780008 ], [ -10859632.215187402442098, 3005839.440783197060227 ], [ -10859625.97445872053504, 3005824.205815738532692 ], [ -10859616.936194838955998, 3005802.141425803303719 ], [ -10859607.897959219291806, 3005780.077064123470336 ], [ -10859598.859756359830499, 3005758.012741674203426 ], [ -10859598.859756359830499, 3005758.012741674203426 ], [ -10859597.947262806817889, 3005755.977152884472162 ], [ -10859596.904191453009844, 3005754.005990780424327 ], [ -10859595.735017169266939, 3005752.107711706310511 ], [ -10859594.444755820557475, 3005750.290459337178618 ], [ -10859593.038942728191614, 3005748.562029730062932 ], [ -10859591.5236089322716, 3005746.92983788298443 ], [ -10859589.905255308374763, 3005745.400885935407132 ], [ -10859588.190824687480927, 3005743.981733111664653 ], [ -10859588.190824687480927, 3005743.981733111664653 ], [ -10859586.387667050585151, 3005742.67846421059221 ], [ -10859584.503522612154484, 3005741.49667432019487 ], [ -10859582.546474475413561, 3005740.441433353815228 ], [ -10859580.524918507784605, 3005739.517268322408199 ], [ -10859578.447527308017015, 3005738.728143928106874 ], [ -10859576.323213009163737, 3005738.077445532660931 ], [ -10859574.161089040338993, 3005737.567964644636959 ], [ -10859571.970431031659245, 3005737.201886955182999 ], [ -10859569.401206506416202, 3005736.85905793029815 ], [ -10859545.874273151159286, 3005733.719677530694753 ], [ -10859543.643970429897308, 3005750.616085847374052 ], [ -10859562.24198018014431, 3005753.097768232226372 ], [ -10859569.740159001201391, 3005754.098303556442261 ], [ -10859569.740159001201391, 3005754.098303556442261 ], [ -10859570.835489274933934, 3005754.281342837028205 ], [ -10859571.916552459821105, 3005754.536083874292672 ], [ -10859572.978710724040866, 3005754.861433821730316 ], [ -10859574.017407327890396, 3005755.255996902473271 ], [ -10859575.02818619273603, 3005755.718080426100641 ], [ -10859576.00671100243926, 3005756.24570202594623 ], [ -10859576.948783813044429, 3005756.83659817231819 ], [ -10859577.850363057106733, 3005757.488233893178403 ], [ -10859578.707580894231796, 3005758.197813624516129 ], [ -10859579.516759786754847, 3005758.962293234653771 ], [ -10859580.27442829310894, 3005759.778393052518368 ], [ -10859580.977335944771767, 3005760.642611960414797 ], [ -10859581.622467214241624, 3005761.551242404151708 ], [ -10859582.207054423168302, 3005762.500386295374483 ], [ -10859582.728589633479714, 3005763.485971748363227 ], [ -10859583.184835409745574, 3005764.503770528826863 ], [ -10859614.773474374786019, 3005841.618936862796545 ], [ -10859614.773474374786019, 3005841.618936862796545 ], [ -10859615.174505446106195, 3005842.700577222276479 ], [ -10859615.501800991594791, 3005843.807029095012695 ], [ -10859615.753859793767333, 3005844.93321755900979 ], [ -10859615.929525729268789, 3005846.073977149557322 ], [ -10859616.027993051335216, 3005847.224075581412762 ], [ -10859616.048810105770826, 3005848.378237722907215 ], [ -10859615.991881389170885, 3005849.531169806607068 ], [ -10859615.857468001544476, 3005850.677583700977266 ], [ -10859615.646186431869864, 3005851.812221166677773 ], [ -10859615.359005743637681, 3005852.929877981543541 ], [ -10859614.9972431268543, 3005854.025427804328501 ], [ -10859614.56255785189569, 3005855.093845684546977 ], [ -10859614.056943669915199, 3005856.130231125745922 ], [ -10859613.482719659805298, 3005857.129830541089177 ], [ -10859612.842519590631127, 3005858.088059074245393 ], [ -10859612.139279846101999, 3005859.00052162213251 ], [ -10859611.376225961372256, 3005859.863032992463559 ], [ -10859610.556857811287045, 3005860.671637104358524 ], [ -10859609.684933578595519, 3005861.422625131905079 ], [ -10859608.764452500268817, 3005862.112552513368428 ], [ -10859589.47447631508112, 3005875.573445625137538 ], [ -10859561.740111496299505, 3005894.926915943156928 ], [ -10859554.763369925320148, 3005893.572881902102381 ], [ -10859552.26463776640594, 3005889.952999669127166 ], [ -10859552.26463776640594, 3005889.952999669127166 ], [ -10859551.670921562239528, 3005889.03080194350332 ], [ -10859551.137522295117378, 3005888.072066015098244 ], [ -10859550.666655629873276, 3005887.080774355214089 ], [ -10859550.260277474299073, 3005886.061044680885971 ], [ -10859549.920075856149197, 3005885.017112822737545 ], [ -10859549.647463919594884, 3005883.953315147198737 ], [ -10859543.54960966296494, 3005856.52850234368816 ], [ -10859536.152516860514879, 3005823.26034934213385 ], [ -10859528.755458934232593, 3005789.992269950453192 ], [ -10859522.008636094629765, 3005759.648533693049103 ], [ -10859505.464670322835445, 3005763.367163338698447 ], [ -10859510.912210835143924, 3005787.86753742583096 ], [ -10859518.309225589036942, 3005821.135621319990605 ], [ -10859525.706275211647153, 3005854.403778823558241 ], [ -10859533.103381995111704, 3005887.67211015149951 ], [ -10859533.103381995111704, 3005887.67211015149951 ], [ -10859533.648605158552527, 3005889.799688697326928 ], [ -10859534.329005660489202, 3005891.887536172755063 ], [ -10859535.141757301986217, 3005893.926980026531965 ], [ -10859536.08348411694169, 3005895.909548765048385 ], [ -10859537.150274399667978, 3005897.827007139567286 ], [ -10859538.337696947157383, 3005899.671390339266509 ], [ -10859540.835592532530427, 3005903.290068267844617 ] ] ] ] } }
]
}
