{
"type": "FeatureCollection",
"name": "PLAT-HATCH-CAMINATA-S2",
"crs": { "type": "name", "properties": { "name": "urn:ogc:def:crs:EPSG::3857" } },
"features": [
{ "type": "Feature", "properties": { "Layer": "PLAT-HATCH-CAMINATA-S2", "PaperSpace": null, "SubClasses": "AcDbEntity:AcDbHatch", "Linetype": null, "EntityHandle": "1142", "Text": "ANSI31" }, "geometry": { "type": "MultiPolygon", "coordinates": [ [ [ [ -10859320.942430200055242, 3005795.690086814574897 ], [ -10859331.516867993399501, 3005793.313280533067882 ], [ -10859374.653399234637618, 3005466.542786559090018 ], [ -10859364.570578129962087, 3005465.197331054136157 ], [ -10859320.942430200055242, 3005795.690086814574897 ] ] ] ] } }
]
}
