<?xml version="1.0" encoding="utf-8" ?>
<kml xmlns:gx="http://www.google.com/kml/ext/2.2" xmlns="http://www.opengis.net/kml/2.2">
<Document id="root_doc">
<Schema name="PLAT_HATCH_ROW_S3" id="PLAT_HATCH_ROW_S3">
	<SimpleField name="Layer" type="string"></SimpleField>
	<SimpleField name="PaperSpace" type="int"></SimpleField>
	<SimpleField name="SubClasses" type="string"></SimpleField>
	<SimpleField name="Linetype" type="string"></SimpleField>
	<SimpleField name="EntityHandle" type="string"></SimpleField>
	<SimpleField name="Text" type="string"></SimpleField>
</Schema>
<Folder><name>PLAT_HATCH_ROW_S3</name>
  <Placemark>
	<styleUrl>https://lagobello.github.io/lagobello-drawings/web/styles.kml#rowStyle</styleUrl>
	<ExtendedData><SchemaData schemaUrl="#PLAT_HATCH_ROW_S3">
		<SimpleData name="Layer">PLAT-HATCH-STREET-S3</SimpleData>
		<SimpleData name="SubClasses">AcDbEntity:AcDbHatch</SimpleData>
		<SimpleData name="EntityHandle">B403</SimpleData>
		<SimpleData name="Text">ANSI31</SimpleData>
	</SchemaData></ExtendedData>
      <MultiGeometry><Polygon><altitudeMode>relativeToGround</altitudeMode><gx:altitudeOffset>1</gx:altitudeOffset><outerBoundaryIs><LinearRing><coordinates>-97.5529031349825,26.0550735749875 -97.5528916515667,26.0551310055213 -97.5525565635844,26.0553410706203 -97.5525432305026,26.0553494290348 -97.5525432305026,26.0553494290348 -97.5525347584136,26.0553551825328 -97.5525267499205,26.0553614543971 -97.5525192438199,26.0553682142442 -97.5525122764741,26.0553754293268 -97.5525058816361,26.0553830646922 -97.552500090285,26.0553910833516 -97.5524949304765,26.0553994464596 -97.5524904272069,26.0554081135018 -97.552486602292,26.0554170424917 -97.5524834742615,26.0554261901736 -97.5524810582689,26.0554355122325 -97.5524793660184,26.0554449635087 -97.5524784057081,26.0554544982162 -97.5524781819905,26.0554640701652 -97.5524786959494,26.0554736329852 -97.5524799450951,26.05548314035 -97.5524819233766,26.055492546202 -97.5524846212104,26.0555018049756 -97.5524880255272,26.0555108718172 -97.5524921198352,26.0555197028035 -97.5524968843002,26.0555282551535 -97.5525022958413,26.055536487436 -97.5525083282427,26.0555443597705 -97.5525149522812,26.05555183402 -97.5525221358673,26.0555588739762 -97.5525298442008,26.0555654455347 -97.5525380399393,26.05557151686 -97.5525466833794,26.05557705854 -97.5525557326487,26.0555820437285 -97.5525651439086,26.0555864482752 -97.5525748715672,26.0555902508427 -97.5525848684996,26.0555934330095 -97.5525950862764,26.05559597936 -97.5526054753984,26.0555978775587 -97.5526159855363,26.0555991184097 -97.5526265657746,26.0555996959019 -97.552637164858,26.0555996072377 -97.5526477314402,26.0555988528466 -97.5526582143321,26.0555974363831 -97.5526685627501,26.0555953647093 -97.5526787265622,26.0555926478613 -97.5526886565305,26.0555892990005 -97.5526983045502,26.0555853343502 -97.5527076238821,26.055580773117 -97.5527165693795,26.0555756373973 -97.5527250977067,26.0555699520708 -97.552733167549,26.0555637446795 -97.5527407398127,26.0555570452947 -97.5527477778148,26.055549886371 -97.5527542474603,26.0555423025893 -97.5527930975487,26.0553602273299 -97.5529682493524,26.0552504252528 -97.5531434008188,26.0551406229579 -97.5533185519477,26.0550308204453 -97.5534937027391,26.0549210177148 -97.5536344164177,26.0548328034369 -97.5536344164177,26.0548328034369 -97.5536375849311,26.0548309458471 -97.5536408748195,26.0548292692192 -97.5536442734319,26.0548277800005 -97.5536477676994,26.0548264839177 -97.5536513441851,26.0548253859546 -97.5536549891362,26.0548244903335 -97.5536586885362,26.0548238004982 -97.5536624281597,26.0548233191015 -97.5536624281597,26.0548233191015 -97.5536695362265,26.054822452903 -97.5536765912563,26.0548212853575 -97.5536765912563,26.0548212853574 -97.5536865717873,26.0548190936858 -97.5536963660579,26.0548162993128 -97.5537059295137,26.0548129149502 -97.55371521865,26.0548089559936 -97.5537241912102,26.0548044404524 -97.5537328063777,26.0547993888681 -97.5537410249619,26.0547938242205 -97.5537488095762,26.0547877718234 -97.5537561248082,26.0547812592094 -97.5537629373805,26.0547743160047 -97.5537692163027,26.0547669737942 -97.5537749330118,26.0547592659778 -97.5537800615023,26.0547512276187 -97.5537845784448,26.0547428952837 -97.5537884632917,26.0547343068769 -97.5537916983707,26.0547255014673 -97.5537916983707,26.0547255014673 -97.5537941935216,26.0547168233306 -97.5537960574712,26.054708016803 -97.5537972823006,26.0546991193 -97.5537978628062,26.0546901686235 -97.5537977965217,26.0546812028014 -97.5537970837289,26.0546722599259 -97.5537957274563,26.0546633779917 -97.5537937334663,26.0546545947345 -97.5537911102308,26.054645947471 -97.553787868895,26.0546374729398 -97.5537840232301,26.0546292071459 -97.5537795895749,26.0546211852072 -97.5537745867664,26.0546134412057 -97.5537690360596,26.0546060080426 -97.5537690360596,26.0546060080426 -97.5537629591012,26.0545989151847 -97.5537563833411,26.0545921951082 -97.553749336734,26.0545858763814 -97.5537418492366,26.0545799858663 -97.5537418492366,26.0545799858663 -97.5537389967855,26.0545777490655 -97.5537363033073,26.054575356869 -97.5537337791598,26.054572818476 -97.5537314340491,26.0545701436475 -97.5537292769933,26.0545673426695 -97.553727316287,26.0545644263127 -97.55372555947,26.0545614057918 -97.553724013298,26.054558292722 -97.5536679510907,26.0544353425601 -97.5535867578438,26.0542572769486 -97.5535055648506,26.0540792112946 -97.5534243721514,26.0539011456867 -97.5534243721514,26.0539011456867 -97.5534161749739,26.0538847178717 -97.5534068047929,26.0538688100017 -97.5533963018076,26.0538534903222 -97.5533847110766,26.0538388245553 -97.553372082325,26.0538248756178 -97.5533584697312,26.0538117033512 -97.553343931694,26.0537993642651 -97.5533285305823,26.0537879112945 -97.5533285305823,26.0537879112945 -97.5533123324229,26.0537773935459 -97.5532954067476,26.0537678561734 -97.5532778261687,26.0537593400928 -97.5532596661081,26.0537518818386 -97.5532410044736,26.0537455134073 -97.5532219213247,26.0537402621196 -97.5532024985291,26.0537361505039 -97.5531828194118,26.0537331961992 -97.5531597395592,26.0537304295293 -97.5529483924579,26.0537050943635 -97.5529283578119,26.0538414538838 -97.5530954274162,26.0538614813272 -97.5531627850413,26.0538695557537 -97.5531627850413,26.0538695557537 -97.5531726246113,26.0538710329079 -97.5531823360199,26.0538730887182 -97.5531918776043,26.0538757143651 -97.5532012084306,26.0538788985844 -97.5532102884688,26.0538826277157 -97.5532190787649,26.0538868857606 -97.5532275416079,26.0538916544518 -97.5532356406914,26.0538969133313 -97.5532433412699,26.0539026398382 -97.5532506103072,26.0539088094054 -97.5532574166186,26.0539153955648 -97.5532637310043,26.0539223700615 -97.5532695263752,26.0539297029743 -97.5532747778684,26.0539373628445 -97.5532794629547,26.0539453168106 -97.5532835615345,26.0539535307495 -97.5535673310954,26.0545758714917 -97.5535673310954,26.0545758714917 -97.553570933673,26.0545846006065 -97.553573873871,26.0545935299583 -97.5535761382036,26.054602618591 -97.5535777162847,26.0546118248179 -97.5535786008761,26.0546211064132 -97.5535787879203,26.0546304208052 -97.5535782765592,26.0546397252717 -97.553577069138,26.0546489771361 -97.5535751711947,26.0546581339631 -97.5535725914344,26.0546671537532 -97.5535693416894,26.0546759951355 -97.5535654368651,26.0546846175574 -97.5535608948716,26.0546929814705 -97.5535557365415,26.0547010485123 -97.5535499855342,26.0547087816816 -97.5535436682277,26.0547161455089 -97.5535368135975,26.0547231062186 -97.5535294530835,26.0547296318841 -97.553521620446,26.0547356925742 -97.5535133516108,26.0547412604902 -97.5533400665,26.0548498938248 -97.5530909240218,26.0550060818 -97.5530282505564,26.0549951546184 -97.5530058038352,26.0549659413734 -97.5530058038352,26.0549659413734 -97.5530004703354,26.0549584990327 -97.552995678673,26.0549507618178 -97.5529914487518,26.0549427618681 -97.5529877981424,26.0549345324143 -97.5529847420088,26.0549261076406 -97.5529822930457,26.0549175225424 -97.5529275138775,26.0546961975909 -97.5528610631926,26.0544277148929 -97.5527946128206,26.0541592321739 -97.5527340037388,26.0539143491868 -97.552585386227,26.0539443601481 -97.552634323399,26.0541420854516 -97.5527007733834,26.0544105682461 -97.5527672236809,26.0546790510197 -97.5528336744915,26.054947534581 -97.5528336744915,26.054947534581 -97.5528385724114,26.0549647046367 -97.5528446846541,26.0549815540469 -97.5528519858309,26.0549980128222 -97.5528604456146,26.055014012596 -97.5528700288654,26.0550294869081 -97.5528806957765,26.055044371481 -97.5529031349825,26.0550735749875</coordinates></LinearRing></outerBoundaryIs></Polygon></MultiGeometry>
  </Placemark>
</Folder>
</Document></kml>
