{
"type": "FeatureCollection",
"name": "PLAT-HATCH-FOUNTAIN",
"crs": { "type": "name", "properties": { "name": "urn:ogc:def:crs:EPSG::3857" } },
"features": [
{ "type": "Feature", "properties": { "Layer": "PLAT-HATCH-FOUNTAIN", "PaperSpace": null, "SubClasses": "AcDbEntity:AcDbHatch", "Linetype": null, "EntityHandle": "E42", "Text": "ANSI31" }, "geometry": { "type": "MultiPolygon", "coordinates": [ [ [ [ -10859445.553709546104074, 3005301.700760672334582 ], [ -10859460.978651547804475, 3005288.174084146972746 ], [ -10859455.438085593283176, 3005282.76226056413725 ], [ -10859455.438085593283176, 3005282.76226056413725 ], [ -10859454.226597297936678, 3005281.494759128428996 ], [ -10859453.104603482410312, 3005280.146548735443503 ], [ -10859452.077408824115992, 3005278.724003644660115 ], [ -10859451.149869790300727, 3005277.233849558513612 ], [ -10859450.326371679082513, 3005275.683131831232458 ], [ -10859449.610807893797755, 3005274.07918214937672 ], [ -10859449.006561519578099, 3005272.429583877325058 ], [ -10859448.51648934930563, 3005270.742136192508042 ], [ -10859448.142908357083797, 3005269.0248172134161 ], [ -10859447.887584758922458, 3005267.285746290814131 ], [ -10859447.751725660637021, 3005265.533145601395518 ], [ -10859428.680091051384807, 3005284.923071332275867 ], [ -10859445.553709546104074, 3005301.700760672334582 ] ] ] ] } }
]
}
