<?xml version="1.0" encoding="utf-8" ?>
<kml xmlns="http://www.opengis.net/kml/2.2">
<Document id="root_doc">
<Schema name="PLAT_HATCH_CAMINATA_PROPOSED" id="PLAT_HATCH_CAMINATA_PROPOSED">
	<SimpleField name="Layer" type="string"></SimpleField>
	<SimpleField name="PaperSpace" type="int"></SimpleField>
	<SimpleField name="SubClasses" type="string"></SimpleField>
	<SimpleField name="Linetype" type="string"></SimpleField>
	<SimpleField name="EntityHandle" type="string"></SimpleField>
	<SimpleField name="Text" type="string"></SimpleField>
</Schema>
<Folder><name>PLAT_HATCH_CAMINATA_PROPOSED</name>
  <Placemark id="PLAT_HATCH_CAMINATA_PROPOSED.1">
	<Style><LineStyle><color>ff0000ff</color></LineStyle><PolyStyle><fill>0</fill></PolyStyle></Style>
	<ExtendedData><SchemaData schemaUrl="#PLAT_HATCH_CAMINATA_PROPOSED">
		<SimpleData name="Layer">PLAT-HATCH-CAMINATA-PROPOSED</SimpleData>
		<SimpleData name="SubClasses">AcDbEntity:AcDbHatch</SimpleData>
		<SimpleData name="EntityHandle">FA0</SimpleData>
		<SimpleData name="Text">ANSI31</SimpleData>
	</SchemaData></ExtendedData>
      <MultiGeometry><Polygon><outerBoundaryIs><LinearRing><coordinates>-97.5515341186243,26.0502364029226 -97.55162471734,26.0502470934882 -97.5517211728322,26.049590646789 -97.5516396982298,26.0495178638807 -97.5515341186243,26.0502364029226</coordinates></LinearRing></outerBoundaryIs></Polygon></MultiGeometry>
  </Placemark>
</Folder>
</Document></kml>
