<?xml version="1.0" encoding="utf-8" ?>
<kml xmlns="http://www.opengis.net/kml/2.2">
<Document id="root_doc">
<Schema name="PLAT_HATCH_STREET_S3" id="PLAT_HATCH_STREET_S3">
	<SimpleField name="Layer" type="string"></SimpleField>
	<SimpleField name="PaperSpace" type="int"></SimpleField>
	<SimpleField name="SubClasses" type="string"></SimpleField>
	<SimpleField name="Linetype" type="string"></SimpleField>
	<SimpleField name="EntityHandle" type="string"></SimpleField>
	<SimpleField name="Text" type="string"></SimpleField>
</Schema>
<Folder><name>PLAT_HATCH_STREET_S3</name>
  <Placemark id="PLAT_HATCH_STREET_S3.1">
	<Style><LineStyle><color>ff0000ff</color></LineStyle><PolyStyle><fill>0</fill></PolyStyle></Style>
	<ExtendedData><SchemaData schemaUrl="#PLAT_HATCH_STREET_S3">
		<SimpleData name="Layer">PLAT-HATCH-STREET-S3</SimpleData>
		<SimpleData name="SubClasses">AcDbEntity:AcDbHatch</SimpleData>
		<SimpleData name="EntityHandle">B403</SimpleData>
		<SimpleData name="Text">ANSI31</SimpleData>
	</SchemaData></ExtendedData>
      <MultiGeometry><Polygon><outerBoundaryIs><LinearRing><coordinates>-97.5529151113285,26.0550707348269 -97.5529036277139,26.0551281652037 -97.552568540322,26.0553382288177 -97.5525552072637,26.0553465871732 -97.5525552072637,26.0553465871732 -97.5525467351876,26.0553523406327 -97.5525387267032,26.0553586124589 -97.5525312206068,26.0553653722683 -97.5525242532609,26.0553725873141 -97.5525178584183,26.0553802226435 -97.5525120670582,26.055388241268 -97.5525069072364,26.0553966043423 -97.5525024039493,26.0554052713522 -97.5524985790126,26.0554142003113 -97.5524954509563,26.0554233479642 -97.5524930349338,26.0554326699959 -97.5524913426497,26.0554421212469 -97.5524903823022,26.0554516559313 -97.5524901585437,26.0554612278593 -97.5524906724586,26.0554707906607 -97.5524919215573,26.0554802980094 -97.5524938997888,26.0554897038477 -97.55249659757,26.05549896261 -97.552500001832,26.0555080294431 -97.5525040960831,26.0555168604235 -97.5525088604894,26.0555254127702 -97.5525142719702,26.0555336450521 -97.5525203043102,26.0555415173887 -97.5525269282863,26.055548991643 -97.5525341118094,26.0555560316067 -97.5525418200796,26.0555626031752 -97.5525500157548,26.0555686745131 -97.5525586591319,26.0555742162083 -97.5525677083387,26.0555792014144 -97.5525771195371,26.0555836059811 -97.5525868471354,26.0555874085706 -97.552596844009,26.0555905907618 -97.5526070617288,26.0555931371387 -97.5526174507959,26.0555950353656 -97.5526279608811,26.0555962762467 -97.5526385410693,26.0555968537705 -97.5526491401055,26.0555967651394 -97.5526597066435,26.0555960107827 -97.5526701894945,26.0555945943548 -97.552680537875,26.0555925227176 -97.5526907016533,26.0555898059068 -97.5527006315916,26.0555864570839 -97.5527102795852,26.055582492472 -97.5527195988951,26.0555779312774 -97.5527285443747,26.0555727955964 -97.5527370726884,26.0555671103084 -97.5527451425215,26.0555609029553 -97.5527527147805,26.0555542036082 -97.5527597527821,26.0555470447215 -97.5527675406322,26.0553809150437 -97.5528050731394,26.0553573862218 -97.5529802246346,26.0552475849209 -97.553155375792,26.0551377834023 -97.5533305266117,26.055027981666 -97.5535056770937,26.0549181797119 -97.5536463905234,26.0548299660579 -97.5536463905234,26.0548299660579 -97.5536495590306,26.0548281084818 -97.5536528489115,26.0548264318677 -97.5536562475151,26.0548249426627 -97.5536597417725,26.0548236465935 -97.553663318247,26.0548225486439 -97.5536669631855,26.0548216530359 -97.5536706625719,26.0548209632136 -97.5536744021806,26.0548204818296 -97.5536744021806,26.0548204818296 -97.5536815102192,26.054819615655 -97.5536885652224,26.0548184481338 -97.5536885652224,26.0548184481338 -97.553698545718,26.0548162564978 -97.5537083399568,26.0548134621612 -97.5537179033842,26.0548100778355 -97.5537271924959,26.0548061189161 -97.5537361650354,26.0548016034124 -97.5537447801862,26.0547965518655 -97.5537529987577,26.0547909872552 -97.5537607833633,26.0547849348951 -97.5537680985907,26.0547784223176 -97.5537749111626,26.0547714791488 -97.5537811900885,26.0547641369733 -97.5537869068054,26.054756429191 -97.5537920353079,26.0547483908648 -97.5537965522663,26.0547400585615 -97.5538004371331,26.0547314701849 -97.5538036722359,26.0547226648039 -97.5538036722359,26.0547226648039 -97.5538061674133,26.0547139866934 -97.5538080313929,26.0547051801902 -97.5538092562556,26.0546962827098 -97.5538098367975,26.0546873320541 -97.5538097705523,26.0546783662507 -97.5538090578016,26.0546694233919 -97.5538077015738,26.0546605414722 -97.5538057076311,26.0546517582274 -97.553803084445,26.0546431109741 -97.5537998431607,26.0546346364508 -97.5537959975491,26.0546263706623 -97.5537915639488,26.0546183487268 -97.5537865611965,26.0546106047261 -97.553781010547,26.0546031715615 -97.553781010547,26.0546031715615 -97.5537749336469,26.0545960786997 -97.5537683579456,26.054589358617 -97.5537613113978,26.0545830398816 -97.5537538239596,26.0545771493557 -97.5537538239596,26.0545771493557 -97.5537509715311,26.0545749125508 -97.5537482780755,26.054572520351 -97.5537457539504,26.0545699819555 -97.5537434088619,26.0545673071254 -97.553741251828,26.0545645061465 -97.5537392911432,26.0545615897898 -97.5537375343473,26.0545585692699 -97.5537359881958,26.0545554562018 -97.5536799267762,26.0544325061257 -97.5535987346703,26.0542544406382 -97.5535175428184,26.0540763751082 -97.5534363512607,26.0538983096243 -97.5534363512607,26.0538983096243 -97.5534281541916,26.0538818818185 -97.5534187841222,26.053865973953 -97.5534082812509,26.0538506542732 -97.553396690636,26.0538359885013 -97.5533840620022,26.0538220395541 -97.5533704495271,26.053808867273 -97.5533559116091,26.0537965281677 -97.5533405106168,26.0537850751735 -97.5533405106168,26.0537850751735 -97.5533243125761,26.0537745573967 -97.5533073870187,26.0537650199917 -97.5532898065562,26.0537565038744 -97.5532716466099,26.0537490455796 -97.5532529850873,26.0537426771036 -97.5532339020472,26.0537374257677 -97.5532144793572,26.0537333141003 -97.5531948003414,26.0537303597407 -97.5531717206049,26.0537275930049 -97.5529603745666,26.0537022572353 -97.5529403394164,26.0538386164051 -97.5531074081805,26.0538586443257 -97.5531747654669,26.0538667189447 -97.5531747654669,26.0538667189447 -97.5531846049862,26.0538681961263 -97.553194316342,26.0538702519624 -97.553203857872,26.0538728776335 -97.5532131886424,26.0538760618751 -97.5532222686234,26.0538797910267 -97.5532310588613,26.0538840490899 -97.5532395216454,26.0538888177974 -97.5532476206695,26.053894076691 -97.5532553211884,26.0538998032097 -97.553262590166,26.0539059727864 -97.553269396418,26.0539125589531 -97.5532757107449,26.0539195334547 -97.5532815060577,26.05392686637 -97.5532867574939,26.0539345262403 -97.5532914425245,26.0539424802042 -97.55329554105,26.0539506941385 -97.5535793066219,26.0545730344473 -97.5535793066219,26.0545730344473 -97.5535829091453,26.0545817635549 -97.5535858492912,26.0545906928969 -97.5535881135739,26.0545997815175 -97.5535896916079,26.0546089877299 -97.5535905761549,26.0546182693083 -97.5535907631577,26.0546275836811 -97.5535902517583,26.0546368881264 -97.5535890443023,26.0546461399675 -97.5535871463276,26.0546552967692 -97.5535845665396,26.0546643165322 -97.5535813167708,26.0546731578857 -97.5535774119265,26.0546817802772 -97.553572869917,26.0546901441586 -97.553567711575,26.0546982111672 -97.5535619605599,26.0547059443024 -97.5535556432498,26.0547133080945 -97.5535487886201,26.0547202687682 -97.5535414281108,26.054726794397 -97.5535335954822,26.0547328550498 -97.5535253266599,26.0547384229284 -97.5533520418556,26.0548470554948 -97.5531028998174,26.0550032423657 -97.5530402266816,26.0549923150123 -97.5530177801887,26.0549631017593 -97.5530177801887,26.0549631017593 -97.5530124467453,26.0549556594178 -97.5530076551381,26.0549479222044 -97.5530034252709,26.0549399222584 -97.5529997747138,26.0549316928106 -97.5529967186307,26.0549232680452 -97.552994269716,26.0549146829576 -97.5529394917592,26.0546933583036 -97.552873042544,26.0544248759663 -97.5528065936421,26.0541563936079 -97.5527459859013,26.0539115109498 -97.5525973689282,26.0539415213855 -97.5526463050172,26.0541392464235 -97.5527127535313,26.0544077288574 -97.5527792023586,26.0546762112703 -97.5528456516994,26.0549446944709 -97.5528456516994,26.0549446944709 -97.5528505495225,26.0549618645056 -97.5528566616642,26.0549787138991 -97.5528639627364,26.0549951726624 -97.5528724224123,26.0550111724286 -97.5528820055525,26.0550266467378 -97.5528926723507,26.0550415313124 -97.5529151113285,26.0550707348269</coordinates></LinearRing></outerBoundaryIs></Polygon></MultiGeometry>
  </Placemark>
</Folder>
</Document></kml>
