{
"type": "FeatureCollection",
"name": "PLAT-HATCH-ROW-S2",
"crs": { "type": "name", "properties": { "name": "urn:ogc:def:crs:EPSG::3857" } },
"features": [
{ "type": "Feature", "properties": { "Layer": "PLAT-HATCH-ROW-S2", "PaperSpace": null, "SubClasses": "AcDbEntity:AcDbHatch", "Linetype": null, "EntityHandle": "1129", "Text": "ANSI31" }, "geometry": { "type": "MultiPolygon", "coordinates": [ [ [ [ -10859500.549837101250887, 3005576.273531458806247, 0.0 ], [ -10859501.375233236700296, 3005612.465065737254918, 0.0 ], [ -10859499.970638448372483, 3005648.638648634310812, 0.0 ], [ -10859496.341423988342285, 3005684.655509405769408, 0.0 ], [ -10859496.341423988342285, 3005684.655509405769408, 0.0 ], [ -10859495.406607499346137, 3005693.806691918987781, 0.0 ], [ -10859495.006448082625866, 3005702.997219127602875, 0.0 ], [ -10859495.142320515587926, 3005712.195540225598961, 0.0 ], [ -10859495.813759399577975, 3005721.370077522471547, 0.0 ], [ -10859497.018460730090737, 3005730.489334859419614, 0.0 ], [ -10859498.752289801836014, 3005739.522005731705576, 0.0 ], [ -10859498.752289801836014, 3005739.522005731705576, 0.0 ], [ -10859502.183165745809674, 3005754.951617002487183, 0.0 ], [ -10859504.132708948105574, 3005763.719251545611769, 0.0 ], [ -10859520.6767089497298, 3005760.000440919306129, 0.0 ], [ -10859524.530295580625534, 3005753.894600338768214, 0.0 ], [ -10859536.383186025545001, 3005751.230255484115332, 0.0 ], [ -10859536.383186025545001, 3005751.230255484115332, 0.0 ], [ -10859537.359258338809013, 3005751.04087730916217, 0.0 ], [ -10859538.344692684710026, 3005750.909347613807768, 0.0 ], [ -10859539.336100574582815, 3005750.836118664126843, 0.0 ], [ -10859540.330072980374098, 3005750.821442269720137, 0.0 ], [ -10859541.323192050680518, 3005750.86536889243871, 0.0 ], [ -10859542.312042873352766, 3005750.967747493181378, 0.0 ], [ -10859544.542172504588962, 3005734.071279730182141, 0.0 ], [ -10859544.542172504588962, 3005734.071279730182141, 0.0 ], [ -10859542.564473206177354, 3005733.866523023694754, 0.0 ], [ -10859540.57823745533824, 3005733.778669989667833, 0.0 ], [ -10859538.590295044705272, 3005733.808022707700729, 0.0 ], [ -10859536.607481637969613, 3005733.954480250831693, 0.0 ], [ -10859534.636615259572864, 3005734.217539020814002, 0.0 ], [ -10859532.684472862631083, 3005734.596294478978962, 0.0 ], [ -10859520.831595674157143, 3005737.260633090045303, 0.0 ], [ -10859514.779947049915791, 3005733.380728848278522, 0.0 ], [ -10859514.779947049915791, 3005733.380728848278522, 0.0 ], [ -10859513.216128071770072, 3005724.155397064518183, 0.0 ], [ -10859512.268959373235703, 3005714.845621312968433, 0.0 ], [ -10859511.942674204707146, 3005705.493022664450109, 0.0 ], [ -10859512.238730050623417, 3005696.13941347412765, 0.0 ], [ -10859513.155802112072706, 3005686.826610449701548, 0.0 ], [ -10859513.155802112072706, 3005686.826610449701548, 0.0 ], [ -10859516.884737377986312, 3005649.782880988437682, 0.0 ], [ -10859518.327108077704906, 3005612.578255006112158, 0.0 ], [ -10859517.477406125515699, 3005575.355275212787092, 0.0 ], [ -10859514.645286962389946, 3005522.89935937197879, 0.0 ], [ -10859514.645286962389946, 3005522.89935937197879, 0.0 ], [ -10859514.496321270242333, 3005517.015167444013059, 0.0 ], [ -10859514.684305369853973, 3005511.132107401732355, 0.0 ], [ -10859515.208616092801094, 3005505.269668497610837, 0.0 ], [ -10859516.067516099661589, 3005499.447271621320397, 0.0 ], [ -10859516.067516099661589, 3005499.447271621320397, 0.0 ], [ -10859517.162738390266895, 3005491.843604218680412, 0.0 ], [ -10859517.768951455131173, 3005484.18483221065253, 0.0 ], [ -10859517.960420763120055, 3005480.513815125450492, 0.0 ], [ -10859500.837192628532648, 3005483.380173711106181, 0.0 ], [ -10859500.837192628532648, 3005483.380173711106181, 0.0 ], [ -10859500.315496556460857, 3005489.950882647186518, 0.0 ], [ -10859499.375278210267425, 3005496.474358530715108, 0.0 ], [ -10859499.375278210267425, 3005496.474358530715108, 0.0 ], [ -10859498.37425952963531, 3005503.264254743698984, 0.0 ], [ -10859497.763255093246698, 3005510.100796699523926, 0.0 ], [ -10859497.544287806376815, 3005516.96135647315532, 0.0 ], [ -10859497.718082990497351, 3005523.82322656409815, 0.0 ], [ -10859500.549837101250887, 3005576.273531458806247, 0.0 ] ] ] ] } }
]
}
