{
"type": "FeatureCollection",
"name": "PLAT-HATCH-ROW-ACCESS",
"crs": { "type": "name", "properties": { "name": "urn:ogc:def:crs:EPSG::3857" } },
"features": [
{ "type": "Feature", "properties": { "Layer": "PLAT-HATCH-ROW-ACCESS", "PaperSpace": null, "SubClasses": "AcDbEntity:AcDbHatch", "Linetype": null, "EntityHandle": "F90", "Text": "ANSI31" }, "geometry": { "type": "MultiPolygon", "coordinates": [ [ [ [ -10859460.863566674292088, 3005252.20244719972834 ], [ -10859472.91682687215507, 3005264.187132243998349 ], [ -10859597.258758561685681, 3005137.768277455121279 ], [ -10859585.205500740557909, 3005125.783805801067501 ], [ -10859460.863566674292088, 3005252.20244719972834 ] ] ] ] } }
]
}
