<?xml version="1.0" encoding="utf-8" ?>
<kml xmlns:gx="http://www.google.com/kml/ext/2.2" xmlns="http://www.opengis.net/kml/2.2">
<Document id="root_doc">
<Schema name="PLAT_HATCH_ROW_S2" id="PLAT_HATCH_ROW_S2">
	<SimpleField name="Layer" type="string"></SimpleField>
	<SimpleField name="PaperSpace" type="int"></SimpleField>
	<SimpleField name="SubClasses" type="string"></SimpleField>
	<SimpleField name="Linetype" type="string"></SimpleField>
	<SimpleField name="EntityHandle" type="string"></SimpleField>
	<SimpleField name="Text" type="string"></SimpleField>
</Schema>
<Folder><name>PLAT_HATCH_ROW_S2</name>
  <Placemark>
	<styleUrl>https://lagobello.github.io/lagobello-drawings/web/styles.kml#rowStyle</styleUrl>
	<ExtendedData><SchemaData schemaUrl="#PLAT_HATCH_ROW_S2">
		<SimpleData name="Layer">PLAT-HATCH-ROW-S2</SimpleData>
		<SimpleData name="SubClasses">AcDbEntity:AcDbHatch</SimpleData>
		<SimpleData name="EntityHandle">1129</SimpleData>
		<SimpleData name="Text">ANSI31</SimpleData>
	</SchemaData></ExtendedData>
      <MultiGeometry><Polygon><altitudeMode>relativeToGround</altitudeMode><outerBoundaryIs><LinearRing><coordinates>-97.5525532182302,26.0524316111757,1 -97.5525606328898,26.0527236908712,1 -97.5525480152001,26.0530156249648,1 -97.5525154134119,26.0533062935308,1 -97.5525154134119,26.0533062935308,1 -97.5525070158125,26.0533801466347,1 -97.5525034211193,26.0534543172167,1 -97.5525046416822,26.0535285506509,1 -97.5525106733203,26.0536025920952,1 -97.5525214953365,26.0536761873663,1 -97.552537070588,26.0537490838119,1 -97.552537070588,26.0537490838119,1 -97.552567890671,26.0538736054386,1 -97.5525854037156,26.0539443628406,1 -97.5527340209962,26.053914350945,1 -97.5527686383539,26.0538650749989,1 -97.5528751146803,26.0538435729385,1 -97.5528751146803,26.0538435729385,1 -97.5528838828871,26.0538420445998,1 -97.5528927351945,26.0538409831156,1 -97.5529016411631,26.053840392136,1 -97.5529105701691,26.0538402736931,1 -97.5529194915095,26.0538406281942,1 -97.5529283745076,26.0538414544202,1 -97.5529484081029,26.0537050947739,1 -97.5529484081029,26.0537050947739,1 -97.5529306421278,26.0537034423239,1 -97.5529127994685,26.0537027333227,1 -97.552894941478,26.0537029702082,1 -97.5528771295621,26.0537041521659,1 -97.5528594249682,26.0537062751317,1 -97.5528418885747,26.0537093318054,1 -97.5527354123673,26.05373083384,1 -97.5526810494828,26.0536995218144,1 -97.5526810494828,26.0536995218144,1 -97.5526670014579,26.0536250705037,1 -97.5526584928967,26.0535499376559,1 -97.5526555618272,26.0534744591652,1 -97.5526582213421,26.0533989724705,1 -97.5526664595406,26.0533238150467,1 -97.5526664595406,26.0533238150467,1 -97.552699957136,26.0530248593281,1 -97.5527129141724,26.0527246043513,1 -97.5527052811699,26.0524242004828,1 -97.5526798398106,26.0520008596114,1 -97.5526798398106,26.0520008596114,1 -97.552678501629,26.0519533716607,1 -97.5526801903189,26.0519058928257,1 -97.5526849002823,26.051858580393,1 -97.5526926159123,26.051811591098,1 -97.5526926159123,26.051811591098,1 -97.5527024544616,26.0517502261406,1 -97.5527079001662,26.0516884164323,1 -97.5527096201642,26.0516587896744,1 -97.5525557995888,26.0516819224771,1 -97.5525557995888,26.0516819224771,1 -97.5525511131132,26.0517349510358,1 -97.5525426669881,26.0517875983789,1 -97.5525426669881,26.0517875983789,1 -97.5525336746843,26.051842395827,1 -97.5525281859381,26.051897569701,1 -97.5525262189215,26.0519529373831,1 -97.5525277801502,26.0520083156138,1 -97.5525532182302,26.0524316111757,1</coordinates></LinearRing></outerBoundaryIs></Polygon></MultiGeometry>
  </Placemark>
</Folder>
</Document></kml>
