{
"type": "FeatureCollection",
"name": "PLAT-HATCH-COMMONAREA-S3",
"crs": { "type": "name", "properties": { "name": "urn:ogc:def:crs:EPSG::3857" } },
"features": [
{ "type": "Feature", "properties": { "Layer": "PLAT-HATCH-COMMONAREA-S3", "PaperSpace": null, "SubClasses": "AcDbEntity:AcDbHatch", "Linetype": null, "EntityHandle": "B3D1", "Text": "ANSI31" }, "geometry": { "type": "MultiPolygon", "coordinates": [ [ [ [ -10859588.141385836526752, 3005875.925149317830801 ], [ -10859607.431396134197712, 3005862.464160691481084 ], [ -10859607.431396136060357, 3005862.464160691481084 ], [ -10859608.35187865421176, 3005861.774228648748249 ], [ -10859609.223803874105215, 3005861.023235998582095 ], [ -10859610.043172545731068, 3005860.214627323672175 ], [ -10859610.806226491928101, 3005859.35211146902293 ], [ -10859611.509465828537941, 3005858.43964453600347 ], [ -10859612.149665029719472, 3005857.481411738786846 ], [ -10859612.723887713626027, 3005856.481808200478554 ], [ -10859613.229500114917755, 3005855.445418793242425 ], [ -10859613.664183164015412, 3005854.376997124403715 ], [ -10859614.025943122804165, 3005853.281443705316633 ], [ -10859614.313120732083917, 3005852.163783507887274 ], [ -10859614.524398813024163, 3005851.0291428854689 ], [ -10859614.658808320760727, 3005849.882726076059043 ], [ -10859614.715732781216502, 3005848.729791328776628 ], [ -10859614.694911118596792, 3005847.57562679098919 ], [ -10859614.59643885307014, 3005846.425526240840554 ], [ -10859614.420767664909363, 3005845.284764817915857 ], [ -10859614.168703319504857, 3005844.15857481630519 ], [ -10859613.841401971876621, 3005843.05212171189487 ], [ -10859613.440364863723516, 3005841.970480429008603 ], [ -10859581.85128184966743, 3005764.855258527211845 ], [ -10859581.85128184966743, 3005764.855258527211845 ], [ -10859581.395030032843351, 3005763.8374591502361 ], [ -10859580.873488612473011, 3005762.851873395498842 ], [ -10859580.28889505378902, 3005761.902729495894164 ], [ -10859579.64375732280314, 3005760.99409934412688 ], [ -10859578.940843118354678, 3005760.129881020169705 ], [ -10859578.183168003335595, 3005759.31378208193928 ], [ -10859577.373982470482588, 3005758.549303639214486 ], [ -10859576.516757993027568, 3005757.839725357946008 ], [ -10859575.615172134712338, 3005757.188091364689171 ], [ -10859574.6730927657336, 3005756.597197216469795 ], [ -10859573.69456148147583, 3005756.069577876012772 ], [ -10859572.683776253834367, 3005755.607496862765402 ], [ -10859571.645073421299458, 3005755.212936532218009 ], [ -10859570.582909097895026, 3005754.887589568272233 ], [ -10859569.50184004381299, 3005754.632851728703827 ], [ -10859568.406504118815064, 3005754.449815849307925 ], [ -10859560.908287594094872, 3005753.449304339941591 ], [ -10859588.141385836526752, 3005875.925149317830801 ] ] ] ] } }
]
}
