{
"type": "FeatureCollection",
"name": "PLAT-HATCH-ROW-RESERVE",
"crs": { "type": "name", "properties": { "name": "urn:ogc:def:crs:EPSG::3857" } },
"features": [
{ "type": "Feature", "properties": { "Layer": "PLAT-HATCH-ROW-RESERVE", "PaperSpace": null, "SubClasses": "AcDbEntity:AcDbHatch", "Linetype": null, "EntityHandle": "F98", "Text": "ANSI31" }, "geometry": { "type": "MultiPolygon", "coordinates": [ [ [ [ -10859435.698485666885972, 3005253.548437719233334 ], [ -10859448.810326930135489, 3005240.217761819716543 ], [ -10859400.597572483122349, 3005192.279016932472587 ], [ -10859397.520715499296784, 3005215.587601639796048 ], [ -10859435.698485666885972, 3005253.548437719233334 ] ] ] ] } }
]
}
