<?xml version="1.0" encoding="utf-8" ?>
<kml xmlns="http://www.opengis.net/kml/2.2">
<Document id="root_doc">
<Schema name="PLAT_HATCH_ROW_S1" id="PLAT_HATCH_ROW_S1">
	<SimpleField name="Layer" type="string"></SimpleField>
	<SimpleField name="PaperSpace" type="int"></SimpleField>
	<SimpleField name="SubClasses" type="string"></SimpleField>
	<SimpleField name="Linetype" type="string"></SimpleField>
	<SimpleField name="EntityHandle" type="string"></SimpleField>
	<SimpleField name="Text" type="string"></SimpleField>
</Schema>
<Folder><name>PLAT_HATCH_ROW_S1</name>
  <Placemark id="PLAT_HATCH_ROW_S1.1">
	<Style><LineStyle><color>ff0000ff</color></LineStyle><PolyStyle><fill>0</fill></PolyStyle></Style>
	<ExtendedData><SchemaData schemaUrl="#PLAT_HATCH_ROW_S1">
		<SimpleData name="Layer">PLAT-HATCH-ROW-S1</SimpleData>
		<SimpleData name="SubClasses">AcDbEntity:AcDbHatch</SimpleData>
		<SimpleData name="EntityHandle">110E</SimpleData>
		<SimpleData name="Text">ANSI31</SimpleData>
	</SchemaData></ExtendedData>
      <MultiGeometry><Polygon><outerBoundaryIs><LinearRing><coordinates>-97.5523399313479,26.0501709132594 -97.552400837746,26.0502100528298 -97.552458820164,26.0502526621601 -97.5525136367442,26.05029856352 -97.5525136367442,26.05029856352 -97.5527704029522,26.0505279327624 -97.5527704029522,26.0505279327624 -97.5527783577776,26.0505355482762 -97.5527857105134,26.0505436424857 -97.5527924259518,26.050552176633 -97.5527984719371,26.0505611098537 -97.5528038195186,26.0505703993723 -97.5528084430902,26.0505800007075 -97.5528123205123,26.0505898678846 -97.5528154332184,26.0505999536561 -97.5528177663034,26.0506102097279 -97.5528193085955,26.0506205869902 -97.5528200527096,26.0506310357529 -97.5528199950821,26.0506415059837 -97.552819135989,26.0506519475473 -97.5528174795435,26.0506623104458 -97.5528150336772,26.0506725450579 -97.5528118101016,26.0506826023765 -97.552807824252,26.0506924342436 -97.552807824252,26.0506924342436 -97.5527304362796,26.0508829834422 -97.5526674848232,26.0510778221288 -97.5526192579359,26.0512760589921 -97.5525859763156,26.0514767871706 -97.5525677922937,26.0516790884015 -97.5527216122741,26.0516559561266 -97.5527216122741,26.0516559561266 -97.5527409716735,26.0514646106869 -97.5527744924937,26.0512748686035 -97.5528220237592,26.0510875840624 -97.5528833514251,26.0509036001822 -97.5529581993414,26.0507237452181 -97.5529581993414,26.0507237452181 -97.5529656273358,26.0507058069557 -97.5529716556818,26.0506874453439 -97.5529762551645,26.0506687493705 -97.5529794034934,26.0506498096438 -97.5529810854112,26.0506307179534 -97.5529812927676,26.0506115668252 -97.5529800245582,26.0505924490733 -97.55297728693,26.0505734573497 -97.5529730931514,26.0505546836959 -97.5529674635478,26.0505362190964 -97.5529604254031,26.0505181530377 -97.5529520128276,26.0505005730749 -97.5529422665925,26.0504835644073 -97.5529312339323,26.0504672094654 -97.552918968316,26.0504515875114 -97.5529055291879,26.0504367742552 -97.5528909816795,26.0504228414875 -97.552316988236,26.049910091768 -97.5521004376894,26.0497166448432 -97.5519826520799,26.0498242305393 -97.5520909272635,26.0499209541358 -97.5520909272635,26.0499209541358 -97.5520921476398,26.0499350985996 -97.5520944411802,26.0499491338723 -97.5520977970414,26.0499629935963 -97.5521021993576,26.0499766122441 -97.5521076273154,26.0499899254276 -97.5521140552522,26.0500028702033 -97.5521214527775,26.0500153853693 -97.5521297849167,26.0500274117548 -97.5521390122764,26.0500388925 -97.5521490912305,26.0500497733248 -97.5521599741268,26.0500600027854 -97.5522097454238,26.0501036792562 -97.5522097454238,26.0501036792562 -97.5522201630817,26.0501137722269 -97.5522313042967,26.0501232136255 -97.552243119236,26.0501319612222 -97.5522555550533,26.0501399758904 -97.5522685561255,26.0501472217817 -97.5522820643007,26.0501536664863 -97.5522960191591,26.0501592811781 -97.5523103582829,26.0501640407434 -97.5523250175353,26.0501679238934 -97.5523399313479,26.0501709132594</coordinates></LinearRing></outerBoundaryIs></Polygon></MultiGeometry>
  </Placemark>
</Folder>
</Document></kml>
