<?xml version="1.0" encoding="utf-8" ?>
<kml xmlns="http://www.opengis.net/kml/2.2">
<Document id="root_doc">
<Schema name="PLAT_HATCH_COMMONAREA_S3" id="PLAT_HATCH_COMMONAREA_S3">
	<SimpleField name="Layer" type="string"></SimpleField>
	<SimpleField name="PaperSpace" type="int"></SimpleField>
	<SimpleField name="SubClasses" type="string"></SimpleField>
	<SimpleField name="Linetype" type="string"></SimpleField>
	<SimpleField name="EntityHandle" type="string"></SimpleField>
	<SimpleField name="Text" type="string"></SimpleField>
</Schema>
<Folder><name>PLAT_HATCH_COMMONAREA_S3</name>
  <Placemark id="PLAT_HATCH_COMMONAREA_S3.1">
	<Style><LineStyle><color>ff0000ff</color></LineStyle><PolyStyle><fill>0</fill></PolyStyle></Style>
	<ExtendedData><SchemaData schemaUrl="#PLAT_HATCH_COMMONAREA_S3">
		<SimpleData name="Layer">PLAT-HATCH-COMMONAREA-S3</SimpleData>
		<SimpleData name="SubClasses">AcDbEntity:AcDbHatch</SimpleData>
		<SimpleData name="EntityHandle">B3D1</SimpleData>
		<SimpleData name="Text">ANSI31</SimpleData>
	</SchemaData></ExtendedData>
      <MultiGeometry><Polygon><outerBoundaryIs><LinearRing><coordinates>-97.5533520418556,26.0548470554948 -97.5535253266599,26.0547384229284 -97.5535253266599,26.0547384229284 -97.5535335954822,26.0547328550498 -97.5535414281108,26.054726794397 -97.5535487886201,26.0547202687682 -97.5535556432498,26.0547133080945 -97.5535619605599,26.0547059443024 -97.553567711575,26.0546982111672 -97.553572869917,26.0546901441586 -97.5535774119265,26.0546817802772 -97.5535813167708,26.0546731578857 -97.5535845665396,26.0546643165322 -97.5535871463276,26.0546552967692 -97.5535890443023,26.0546461399675 -97.5535902517583,26.0546368881264 -97.5535907631577,26.0546275836811 -97.5535905761549,26.0546182693083 -97.5535896916079,26.0546089877299 -97.5535881135739,26.0545997815175 -97.5535858492912,26.0545906928969 -97.5535829091453,26.0545817635549 -97.5535793066219,26.0545730344473 -97.55329554105,26.0539506941385 -97.55329554105,26.0539506941385 -97.5532914425245,26.0539424802042 -97.5532867574939,26.0539345262403 -97.5532815060577,26.05392686637 -97.5532757107449,26.0539195334547 -97.553269396418,26.0539125589531 -97.553262590166,26.0539059727864 -97.5532553211883,26.0538998032097 -97.5532476206695,26.053894076691 -97.5532395216453,26.0538888177974 -97.5532310588613,26.0538840490899 -97.5532222686234,26.0538797910267 -97.5532131886423,26.0538760618751 -97.553203857872,26.0538728776335 -97.553194316342,26.0538702519624 -97.5531846049861,26.0538681961263 -97.5531747654669,26.0538667189447 -97.5531074081805,26.0538586443257 -97.5533520418556,26.0548470554948</coordinates></LinearRing></outerBoundaryIs></Polygon></MultiGeometry>
  </Placemark>
</Folder>
</Document></kml>
