{
"type": "FeatureCollection",
"name": "PLAT-HATCH-CAMINATA-PROPOSED",
"crs": { "type": "name", "properties": { "name": "urn:ogc:def:crs:EPSG::3857" } },
"features": [
{ "type": "Feature", "properties": { "Layer": "PLAT-HATCH-CAMINATA-PROPOSED", "PaperSpace": null, "SubClasses": "AcDbEntity:AcDbHatch", "Linetype": null, "EntityHandle": "FA0", "Text": "ANSI31" }, "geometry": { "type": "MultiPolygon", "coordinates": [ [ [ [ -10859385.767943810671568, 3005304.619804233312607 ], [ -10859395.853397630155087, 3005305.944411433767527 ], [ -10859406.590503312647343, 3005224.605871804058552 ], [ -10859397.520715499296784, 3005215.587601639796048 ], [ -10859385.767943810671568, 3005304.619804233312607 ] ] ] ] } }
]
}
