{
"type": "FeatureCollection",
"name": "PLAT-HATCH-LOTS-S1",
"crs": { "type": "name", "properties": { "name": "urn:ogc:def:crs:EPSG::3857" } },
"features": [
{ "type": "Feature", "properties": { "Layer": "PLAT-HATCH-LOTS-S1", "PaperSpace": null, "SubClasses": "AcDbEntity:AcDbHatch", "Linetype": null, "EntityHandle": "1151", "Text": "ANSI31" }, "geometry": { "type": "MultiPolygon", "coordinates": [ [ [ [ -10859385.767943810671568, 3005304.619804233312607 ], [ -10859406.613720634952188, 3005307.357646694872528 ], [ -10859447.751725660637021, 3005265.533145601395518 ], [ -10859397.520715499296784, 3005215.587601639796048 ], [ -10859385.767943810671568, 3005304.619804233312607 ] ] ] ] } },
{ "type": "Feature", "properties": { "Layer": "PLAT-HATCH-LOTS-S1", "PaperSpace": null, "SubClasses": "AcDbEntity:AcDbHatch", "Linetype": null, "EntityHandle": "115C", "Text": "ANSI31" }, "geometry": { "type": "MultiPolygon", "coordinates": [ [ [ [ -10859467.028398435562849, 3005332.103691837284714 ], [ -10859502.107540434226394, 3005319.579648154322058 ], [ -10859494.807926643639803, 3005312.321597309783101 ], [ -10859494.807926643639803, 3005312.321597309783101 ], [ -10859488.705722898244858, 3005306.634090088773519 ], [ -10859482.251099690794945, 3005301.354493634775281 ], [ -10859475.470980709418654, 3005296.504829558543861 ], [ -10859475.470980709418654, 3005296.504829558543861 ], [ -10859473.810773709788918, 3005296.134430414065719 ], [ -10859472.17890390753746, 3005295.653284636326134 ], [ -10859470.582670403644443, 3005295.063544321805239 ], [ -10859469.029212897643447, 3005294.367847307119519 ], [ -10859467.525479760020971, 3005293.569305348675698 ], [ -10859466.078196948394179, 3005292.671490220353007 ], [ -10859464.69383791834116, 3005291.678417725488544 ], [ -10859463.378594679757953, 3005290.594529741909355 ], [ -10859462.138350090011954, 3005289.424674348440021 ], [ -10859460.978651547804475, 3005288.174084146972746 ], [ -10859445.553709546104074, 3005301.700760672334582 ], [ -10859452.785680759698153, 3005308.891604597680271 ], [ -10859467.028398435562849, 3005332.103691837284714 ] ] ] ] } },
{ "type": "Feature", "properties": { "Layer": "PLAT-HATCH-LOTS-S1", "PaperSpace": null, "SubClasses": "AcDbEntity:AcDbHatch", "Linetype": null, "EntityHandle": "1165", "Text": "ANSI31" }, "geometry": { "type": "MultiPolygon", "coordinates": [ [ [ [ -10859476.124044578522444, 3005356.706976432353258 ], [ -10859527.558484414592385, 3005361.121655957307667 ], [ -10859527.558484414592385, 3005361.121655957307667 ], [ -10859528.001871157437563, 3005359.903528331313282 ], [ -10859528.360425271093845, 3005358.657491613179445 ], [ -10859528.632430484518409, 3005357.38951023388654 ], [ -10859528.816584799438715, 3005356.105653673410416 ], [ -10859528.912006754428148, 3005354.812067397870123 ], [ -10859528.918239608407021, 3005353.514943445567042 ], [ -10859528.835253555327654, 3005352.220490780193359 ], [ -10859528.66344584710896, 3005350.934905576519668 ], [ -10859528.40363890491426, 3005349.664341561030596 ], [ -10859528.057076374068856, 3005348.414880558848381 ], [ -10859527.625417171046138, 3005347.192503369413316 ], [ -10859527.110727544873953, 3005346.003061152528971 ], [ -10859526.515471186488867, 3005344.852247414179146 ], [ -10859525.842497436329722, 3005343.745570754632354 ], [ -10859525.095027634873986, 3005342.688328496646136 ], [ -10859524.2766397241503, 3005341.685581345576793 ], [ -10859523.391251096501946, 3005340.742129136808217 ], [ -10859502.107540434226394, 3005319.579648154322058 ], [ -10859467.028398435562849, 3005332.103691837284714 ], [ -10859476.124044578522444, 3005356.706976432353258 ] ] ] ] } },
{ "type": "Feature", "properties": { "Layer": "PLAT-HATCH-LOTS-S1", "PaperSpace": null, "SubClasses": "AcDbEntity:AcDbHatch", "Linetype": null, "EntityHandle": "116D", "Text": "ANSI31" }, "geometry": { "type": "MultiPolygon", "coordinates": [ [ [ [ -10859474.817743578925729, 3005383.457937319297343 ], [ -10859517.526334865018725, 3005389.156898658722639 ], [ -10859517.526334865018725, 3005389.156898658722639 ], [ -10859522.263014279305935, 3005375.038199896458536 ], [ -10859527.558484045788646, 3005361.121655925642699 ], [ -10859476.124044578522444, 3005356.706976432353258 ], [ -10859474.817743578925729, 3005383.457937319297343 ] ] ] ] } },
{ "type": "Feature", "properties": { "Layer": "PLAT-HATCH-LOTS-S1", "PaperSpace": null, "SubClasses": "AcDbEntity:AcDbHatch", "Linetype": null, "EntityHandle": "1175", "Text": "ANSI31" }, "geometry": { "type": "MultiPolygon", "coordinates": [ [ [ [ -10859467.612737689167261, 3005414.646903329063207 ], [ -10859509.244276609271765, 3005420.202167992480099 ], [ -10859509.244276609271765, 3005420.202167992480099 ], [ -10859513.051507603377104, 3005404.589504319243133 ], [ -10859517.526334865018725, 3005389.156898658722639 ], [ -10859474.817743578925729, 3005383.457937319297343 ], [ -10859467.612737689167261, 3005414.646903329063207 ] ] ] ] } },
{ "type": "Feature", "properties": { "Layer": "PLAT-HATCH-LOTS-S1", "PaperSpace": null, "SubClasses": "AcDbEntity:AcDbHatch", "Linetype": null, "EntityHandle": "117D", "Text": "ANSI31" }, "geometry": { "type": "MultiPolygon", "coordinates": [ [ [ [ -10859460.406932916492224, 3005445.839254217687994 ], [ -10859503.691086707636714, 3005451.61506188288331 ], [ -10859503.691086707636714, 3005451.61506188288331 ], [ -10859506.132427003234625, 3005435.848692974541336 ], [ -10859509.244276609271765, 3005420.202167992480099 ], [ -10859467.612737689167261, 3005414.646903329063207 ], [ -10859460.406932916492224, 3005445.839254217687994 ] ] ] ] } },
{ "type": "Feature", "properties": { "Layer": "PLAT-HATCH-LOTS-S1", "PaperSpace": null, "SubClasses": "AcDbEntity:AcDbHatch", "Linetype": null, "EntityHandle": "1185", "Text": "ANSI31" }, "geometry": { "type": "MultiPolygon", "coordinates": [ [ [ [ -10859456.237043924629688, 3005477.429066912736744 ], [ -10859500.837192628532648, 3005483.380173711106181 ], [ -10859500.837192628532648, 3005483.380173711106181 ], [ -10859501.925239931792021, 3005467.466828739270568 ], [ -10859503.691086707636714, 3005451.61506188288331 ], [ -10859460.406932916492224, 3005445.839254217687994 ], [ -10859456.237043924629688, 3005477.429066912736744 ] ] ] ] } },
{ "type": "Feature", "properties": { "Layer": "PLAT-HATCH-LOTS-S1", "PaperSpace": null, "SubClasses": "AcDbEntity:AcDbHatch", "Linetype": null, "EntityHandle": "118E", "Text": "ANSI31" }, "geometry": { "type": "MultiPolygon", "coordinates": [ [ [ [ -10859544.28787399455905, 3005365.026523019187152, 0.0 ], [ -10859540.585468012839556, 3005374.377180707175285, 0.0 ], [ -10859540.585468012839556, 3005374.377180707175285, 0.0 ], [ -10859572.255237359553576, 3005386.548642605543137, 0.0 ], [ -10859572.255237359553576, 3005386.548642605543137, 0.0 ], [ -10859575.58435227535665, 3005378.134623067919165, 0.0 ], [ -10859575.58435227535665, 3005378.134623067919165, 0.0 ], [ -10859579.14791483618319, 3005369.812940889503807, 0.0 ], [ -10859536.813953977078199, 3005327.720381268300116, 0.0 ], [ -10859536.813953977078199, 3005327.720381268300116, 0.0 ], [ -10859538.434307241812348, 3005329.447793205734342, 0.0 ], [ -10859539.931127430871129, 3005331.284428230021149, 0.0 ], [ -10859541.297151843085885, 3005333.221374933142215, 0.0 ], [ -10859542.525752399116755, 3005335.249235190916806, 0.0 ], [ -10859543.610967803746462, 3005337.358169739600271, 0.0 ], [ -10859544.547532463446259, 3005339.537945949006826, 0.0 ], [ -10859545.330902038142085, 3005341.77798744244501, 0.0 ], [ -10859545.957275500521064, 3005344.067425424233079, 0.0 ], [ -10859546.423613565042615, 3005346.395151417236775, 0.0 ], [ -10859546.727653451263905, 3005348.749871154781431, 0.0 ], [ -10859546.867919854819775, 3005351.120159386191517, 0.0 ], [ -10859546.843732111155987, 3005353.494515306316316, 0.0 ], [ -10859546.655207496136427, 3005355.861418365035206, 0.0 ], [ -10859546.30326066724956, 3005358.209384158719331, 0.0 ], [ -10859545.789599215611815, 3005360.527020164765418, 0.0 ], [ -10859545.116715386509895, 3005362.80308100534603, 0.0 ], [ -10859544.28787399455905, 3005365.026523019187152, 0.0 ] ] ] ] } },
{ "type": "Feature", "properties": { "Layer": "PLAT-HATCH-LOTS-S1", "PaperSpace": null, "SubClasses": "AcDbEntity:AcDbHatch", "Linetype": null, "EntityHandle": "1194", "Text": "ANSI31" }, "geometry": { "type": "MultiPolygon", "coordinates": [ [ [ [ -10859531.890647241845727, 3005400.215960036963224 ], [ -10859564.397674225270748, 3005409.901651338208467 ], [ -10859564.397674225270748, 3005409.901651338208467 ], [ -10859568.103285310789943, 3005398.149233956355602 ], [ -10859572.255362804979086, 3005386.548690820578486 ], [ -10859540.585468012839556, 3005374.377180707175285 ], [ -10859540.585468012839556, 3005374.377180707175285 ], [ -10859535.991022869944572, 3005387.212529134005308 ], [ -10859531.890647241845727, 3005400.215960036963224 ] ] ] ] } },
{ "type": "Feature", "properties": { "Layer": "PLAT-HATCH-LOTS-S1", "PaperSpace": null, "SubClasses": "AcDbEntity:AcDbHatch", "Linetype": null, "EntityHandle": "119A", "Text": "ANSI31" }, "geometry": { "type": "MultiPolygon", "coordinates": [ [ [ [ -10859525.20128994807601, 3005426.623313187155873, 0.0 ], [ -10859558.35138326883316, 3005433.772284766193479, 0.0 ], [ -10859558.35138326883316, 3005433.772284766193479, 0.0 ], [ -10859561.146537236869335, 3005421.778583853505552, 0.0 ], [ -10859564.397674225270748, 3005409.901651338208467, 0.0 ], [ -10859531.890647241845727, 3005400.215960036963224, 0.0 ], [ -10859531.890647241845727, 3005400.215960036963224, 0.0 ], [ -10859528.293749388307333, 3005413.355042422190309, 0.0 ], [ -10859525.20128994807601, 3005426.623313187155873, 0.0 ] ] ] ] } },
{ "type": "Feature", "properties": { "Layer": "PLAT-HATCH-LOTS-S1", "PaperSpace": null, "SubClasses": "AcDbEntity:AcDbHatch", "Linetype": null, "EntityHandle": "11A0", "Text": "ANSI31" }, "geometry": { "type": "MultiPolygon", "coordinates": [ [ [ [ -10859520.543559335172176, 3005453.496003962587565 ], [ -10859554.141562694683671, 3005458.063519784715027 ], [ -10859554.141562694683671, 3005458.063519784715027 ], [ -10859556.014231223613024, 3005445.877208953723311 ], [ -10859558.351383266970515, 3005433.772284766193479 ], [ -10859525.20128994807601, 3005426.623313187155873 ], [ -10859525.20128994807601, 3005426.623313187155873 ], [ -10859522.615503123030066, 3005440.01463514380157 ], [ -10859520.543559335172176, 3005453.496003962587565 ] ] ] ] } },
{ "type": "Feature", "properties": { "Layer": "PLAT-HATCH-LOTS-S1", "PaperSpace": null, "SubClasses": "AcDbEntity:AcDbHatch", "Linetype": null, "EntityHandle": "11A7", "Text": "ANSI31" }, "geometry": { "type": "MultiPolygon", "coordinates": [ [ [ [ -10859517.960420731455088, 3005480.513815125450492, 0.0 ], [ -10859551.807717161253095, 3005482.47417755285278, 0.0 ], [ -10859551.807717161253095, 3005482.47417755285278, 0.0 ], [ -10859552.742525899782777, 3005470.24640943761915, 0.0 ], [ -10859554.141562694683671, 3005458.063519784715027, 0.0 ], [ -10859520.543559335172176, 3005453.496003962587565, 0.0 ], [ -10859520.543559335172176, 3005453.496003962587565, 0.0 ], [ -10859518.99496310018003, 3005466.980060999747366, 0.0 ], [ -10859517.960420731455088, 3005480.513815125450492, 0.0 ] ] ] ] } }
]
}
