{
"type": "FeatureCollection",
"name": "PLAT-HATCH-ROW-S3",
"crs": { "type": "name", "properties": { "name": "urn:ogc:def:crs:EPSG::3857" } },
"features": [
{ "type": "Feature", "properties": { "Layer": "PLAT-HATCH-STREET-S3", "PaperSpace": null, "SubClasses": "AcDbEntity:AcDbHatch", "Linetype": null, "EntityHandle": "B403", "Text": "ANSI31" }, "geometry": { "type": "MultiPolygon", "coordinates": [ [ [ [ -10859539.502391796559095, 3005903.641999460291117 ], [ -10859538.224063795059919, 3005910.758358250837773 ], [ -10859500.922240233048797, 3005936.788071389310062 ], [ -10859499.438008354976773, 3005937.823785254266113 ], [ -10859499.438008356839418, 3005937.823785254266113 ], [ -10859498.494899718090892, 3005938.536716872826219 ], [ -10859497.603398350998759, 3005939.313880706671625 ], [ -10859496.767823047935963, 3005940.151511873118579 ], [ -10859495.992221672087908, 3005941.045552576426417 ], [ -10859495.280351556837559, 3005941.991671729832888 ], [ -10859494.635661296546459, 3005942.985285974107683 ], [ -10859494.061274040490389, 3005944.021581853274256 ], [ -10859493.559972364455462, 3005945.095539149828255 ], [ -10859493.13418479077518, 3005946.201955189928412 ], [ -10859492.785974025726318, 3005947.33547005802393 ], [ -10859492.517026957124472, 3005948.490592564456165 ], [ -10859492.328646494075656, 3005949.661726831458509 ], [ -10859492.221745247021317, 3005950.843199411872774 ], [ -10859492.196841111406684, 3005952.029286780394614 ], [ -10859492.254054751247168, 3005953.214243044611067 ], [ -10859492.393109021708369, 3005954.392327802721411 ], [ -10859492.61333030834794, 3005955.557833913248032 ], [ -10859492.91365178860724, 3005956.705115192104131 ], [ -10859493.292618598788977, 3005957.828613731078804 ], [ -10859493.748394889757037, 3005958.92288683494553 ], [ -10859494.278772708028555, 3005959.982633380685002 ], [ -10859494.881182700395584, 3005961.002719511743635 ], [ -10859495.552706556394696, 3005961.978203498758376 ], [ -10859496.290091151371598, 3005962.90435967920348 ], [ -10859497.089764297008514, 3005963.776701354887336 ], [ -10859497.947852056473494, 3005964.591002534143627 ], [ -10859498.860197497531772, 3005965.343318382278085 ], [ -10859499.822380848228931, 3005966.030004356987774 ], [ -10859500.829740891233087, 3005966.647733856458217 ], [ -10859501.877397555857897, 3005967.193514325655997 ], [ -10859502.960275556892157, 3005967.664701766334474 ], [ -10859504.073128977790475, 3005968.059013541322201 ], [ -10859505.210566690191627, 3005968.374539429787546 ], [ -10859506.367078462615609, 3005968.609750885516405 ], [ -10859507.537061661481857, 3005968.763508437667042 ], [ -10859508.714848397299647, 3005968.83506722189486 ], [ -10859509.894732968881726, 3005968.82408057525754 ], [ -10859511.070999516174197, 3005968.730601718183607 ], [ -10859512.237949702888727, 3005968.555083506274968 ], [ -10859513.389930330216885, 3005968.298376224469393 ], [ -10859514.521360715851188, 3005967.961723481304944 ], [ -10859515.626759735867381, 3005967.546756168361753 ], [ -10859516.700772369280457, 3005967.055484564509243 ], [ -10859517.738195648416877, 3005966.490288611501455 ], [ -10859518.734003866091371, 3005965.853906364180148 ], [ -10859519.683372911065817, 3005965.149420732166618 ], [ -10859520.581703644245863, 3005964.380244552623481 ], [ -10859521.424644188955426, 3005963.550104049034417 ], [ -10859522.208110993728042, 3005962.663020779378712 ], [ -10859522.928308630362153, 3005961.723292156122625 ], [ -10859527.253080688416958, 3005939.161831456236541 ], [ -10859546.750890295952559, 3005925.555962269194424 ], [ -10859566.248662339523435, 3005911.950078842230141 ], [ -10859585.746396820992231, 3005898.344181175809354 ], [ -10859605.244093738496304, 3005884.7382692694664 ], [ -10859620.908268785104156, 3005873.807442007120699 ], [ -10859620.908268785104156, 3005873.807442007120699 ], [ -10859621.260986084118485, 3005873.577264009509236 ], [ -10859621.627214780077338, 3005873.369509402196854 ], [ -10859622.005546586588025, 3005873.184977081138641 ], [ -10859622.394526666030288, 3005873.024376643821597 ], [ -10859622.792659237980843, 3005872.888325662817806 ], [ -10859623.198413331061602, 3005872.7773473020643 ], [ -10859623.610228659585118, 3005872.691868320573121 ], [ -10859624.026521636173129, 3005872.632217416074127 ], [ -10859624.026521636173129, 3005872.632217416074127 ], [ -10859624.817788017913699, 3005872.524884880986065 ], [ -10859625.603150341659784, 3005872.380211783573031 ], [ -10859625.603150341659784, 3005872.380211780313402 ], [ -10859626.714177971705794, 3005872.10863700741902 ], [ -10859627.80447119101882, 3005871.762380214873701 ], [ -10859628.869070215150714, 3005871.343016545288265 ], [ -10859629.903132136911154, 3005870.852453707717359 ], [ -10859630.901952967047691, 3005870.292923298664391 ], [ -10859631.860989032313228, 3005869.666970659047365 ], [ -10859632.775877645239234, 3005868.977443273179233 ], [ -10859633.642456945031881, 3005868.227477848529816 ], [ -10859634.456784836947918, 3005867.42048601154238 ], [ -10859635.215156918391585, 3005866.560138809960335 ], [ -10859635.914123337715864, 3005865.650350003037602 ], [ -10859636.550504483282566, 3005864.695258270483464 ], [ -10859637.121405441313982, 3005863.69920836482197 ], [ -10859637.624229183420539, 3005862.666731355246156 ], [ -10859638.056688357144594, 3005861.602524035610259 ], [ -10859638.416815709322691, 3005860.511427517980337 ], [ -10859638.416815709322691, 3005860.511427517980337 ], [ -10859638.694574628025293, 3005859.436101741623133 ], [ -10859638.902068553492427, 3005858.344866868108511 ], [ -10859639.038415942341089, 3005857.242359121795744 ], [ -10859639.103037524968386, 3005856.133262624498457 ], [ -10859639.095658766105771, 3005855.022289487998933 ], [ -10859639.016311032697558, 3005853.914159798528999 ], [ -10859638.865331461653113, 3005852.813581547699869 ], [ -10859638.643361516296864, 3005851.725230653770268 ], [ -10859638.351344276219606, 3005850.653731082566082 ], [ -10859637.990520421415567, 3005849.603635196108371 ], [ -10859637.562422964721918, 3005848.579404426272959 ], [ -10859637.068870726972818, 3005847.585390305146575 ], [ -10859636.511960629373789, 3005846.625815990380943 ], [ -10859635.894058771431446, 3005845.704758323729038 ], [ -10859635.894058771431446, 3005845.704758323729038 ], [ -10859635.217574864625931, 3005844.825868597254157 ], [ -10859634.485564593225718, 3005843.993170975707471 ], [ -10859633.701139882206917, 3005843.210205412469804 ], [ -10859632.867635477334261, 3005842.48030043207109 ], [ -10859632.867635477334261, 3005842.48030043207109 ], [ -10859632.550102071836591, 3005842.203134171664715 ], [ -10859632.250265460461378, 3005841.906712553463876 ], [ -10859631.969278637319803, 3005841.592175440862775 ], [ -10859631.708222113549709, 3005841.260732364375144 ], [ -10859631.468099754303694, 3005840.913657857570797 ], [ -10859631.249834932386875, 3005840.552286566235125 ], [ -10859631.054266959428787, 3005840.178008113056421 ], [ -10859630.882147876545787, 3005839.792261754628271 ], [ -10859624.641331506893039, 3005824.557283307891339 ], [ -10859615.602940607815981, 3005802.492877464275807 ], [ -10859606.56457794457674, 3005780.428499882575125 ], [ -10859597.526248021051288, 3005758.364161538425833 ], [ -10859597.526248021051288, 3005758.364161538425833 ], [ -10859596.613742390647531, 3005756.328571556136012 ], [ -10859595.57065862044692, 3005754.357408847659826 ], [ -10859594.401471639052033, 3005752.459129761904478 ], [ -10859593.111197363585234, 3005750.641877972986549 ], [ -10859591.705371173098683, 3005748.913449537009001 ], [ -10859590.190024157986045, 3005747.281259445473552 ], [ -10859588.571657255291939, 3005745.752309830859303 ], [ -10859586.857213353738189, 3005744.333159908652306 ], [ -10859586.857213353738189, 3005744.333159908652306 ], [ -10859585.054042488336563, 3005743.029894462786615 ], [ -10859583.16988493129611, 3005741.848108568694443 ], [ -10859581.212823843583465, 3005740.792872117366642 ], [ -10859579.191255146637559, 3005739.868712111376226 ], [ -10859577.113851495087147, 3005739.079593222588301 ], [ -10859574.989525074139237, 3005738.428900787606835 ], [ -10859572.827389365062118, 3005737.919426294974983 ], [ -10859570.636720050126314, 3005737.553355406969786 ], [ -10859568.067482601851225, 3005737.210534540936351 ], [ -10859544.540430907160044, 3005734.071228878572583 ], [ -10859542.310184314846992, 3005750.967681027948856 ], [ -10859560.908287594094872, 3005753.449304339941591 ], [ -10859568.406504122540355, 3005754.449815849307925 ], [ -10859568.406504122540355, 3005754.449815849307925 ], [ -10859569.50184004753828, 3005754.632851728703827 ], [ -10859570.582909101620317, 3005754.887589568272233 ], [ -10859571.645073425024748, 3005755.212936532218009 ], [ -10859572.683776255697012, 3005755.607496862765402 ], [ -10859573.69456148520112, 3005756.069577876012772 ], [ -10859574.67309276945889, 3005756.597197216469795 ], [ -10859575.615172136574984, 3005757.188091364689171 ], [ -10859576.516757996752858, 3005757.839725357946008 ], [ -10859577.373982472345233, 3005758.549303639214486 ], [ -10859578.18316800519824, 3005759.313782083336264 ], [ -10859578.940843118354678, 3005760.129881022498012 ], [ -10859579.64375732280314, 3005760.994099345523864 ], [ -10859580.288895055651665, 3005761.902729495894164 ], [ -10859580.873488612473011, 3005762.851873395498842 ], [ -10859581.395030032843351, 3005763.8374591502361 ], [ -10859581.85128184966743, 3005764.855258527211845 ], [ -10859613.440364863723516, 3005841.970480429008603 ], [ -10859613.440364863723516, 3005841.970480429008603 ], [ -10859613.841401971876621, 3005843.05212171189487 ], [ -10859614.168703319504857, 3005844.158574818633497 ], [ -10859614.420767664909363, 3005845.284764817915857 ], [ -10859614.59643885307014, 3005846.425526240840554 ], [ -10859614.694911118596792, 3005847.57562679098919 ], [ -10859614.715732781216502, 3005848.729791328776628 ], [ -10859614.658808320760727, 3005849.882726076059043 ], [ -10859614.524398813024163, 3005851.0291428854689 ], [ -10859614.313120732083917, 3005852.163783507887274 ], [ -10859614.025943122804165, 3005853.281443705316633 ], [ -10859613.664183164015412, 3005854.376997124403715 ], [ -10859613.229500114917755, 3005855.445418793242425 ], [ -10859612.723887711763382, 3005856.481808200478554 ], [ -10859612.149665029719472, 3005857.481411738786846 ], [ -10859611.509465828537941, 3005858.43964453600347 ], [ -10859610.806226490065455, 3005859.35211146902293 ], [ -10859610.043172545731068, 3005860.214627323672175 ], [ -10859609.223803874105215, 3005861.023235998582095 ], [ -10859608.35187865421176, 3005861.774228648748249 ], [ -10859607.431396134197712, 3005862.464160691481084 ], [ -10859588.141385836526752, 3005875.925149317830801 ], [ -10859560.406972026452422, 3005895.278756950050592 ], [ -10859553.430193772539496, 3005893.92474414780736 ], [ -10859550.931436197832227, 3005890.304862822405994 ], [ -10859550.931436197832227, 3005890.304862822405994 ], [ -10859550.337713710963726, 3005889.382665179669857 ], [ -10859549.804308289662004, 3005888.423929046839476 ], [ -10859549.33343562297523, 3005887.432636896613985 ], [ -10859548.927051646634936, 3005886.412906448822469 ], [ -10859548.58684441074729, 3005885.368973535951227 ], [ -10859548.314227079972625, 3005884.305174530018121 ], [ -10859542.216237971559167, 3005856.880324207711965 ], [ -10859534.818981559947133, 3005823.612125701736659 ], [ -10859527.421759992837906, 3005790.344000813085586 ], [ -10859520.674787871539593, 3005760.000223064329475 ], [ -10859504.130762128159404, 3005763.718917920254171 ], [ -10859509.578423200175166, 3005788.219325499609113 ], [ -10859516.975601628422737, 3005821.48745488235727 ], [ -10859524.372814901173115, 3005854.755657881963998 ], [ -10859531.770085301250219, 3005888.02403471339494 ], [ -10859531.770085301250219, 3005888.02403471339494 ], [ -10859532.315319253131747, 3005890.151615919545293 ], [ -10859532.995730994269252, 3005892.23946550115943 ], [ -10859533.808494279161096, 3005894.278910904191434 ], [ -10859534.75023309700191, 3005896.261480621062219 ], [ -10859535.817035689949989, 3005898.178939403966069 ], [ -10859537.004470802843571, 3005900.023322437889874 ], [ -10859539.502391796559095, 3005903.641999460291117 ] ] ] ] } }
]
}
