{
"type": "FeatureCollection",
"name": "PLAT-HATCH-LOTS-S2",
"crs": { "type": "name", "properties": { "name": "urn:ogc:def:crs:EPSG::3857" } },
"features": [
{ "type": "Feature", "properties": { "Layer": "PLAT-HATCH-LOTS-S2", "PaperSpace": null, "SubClasses": "AcDbEntity:AcDbHatch", "Linetype": null, "EntityHandle": "11B1", "Text": "ANSI31" }, "geometry": { "type": "MultiPolygon", "coordinates": [ [ [ [ -10859450.221411094069481, 3005519.371146395336837 ], [ -10859497.543653709813952, 3005517.294562930706888 ], [ -10859497.543653709813952, 3005517.294562930706888 ], [ -10859497.750258222222328, 3005510.318565136287361 ], [ -10859498.362190501764417, 3005503.366651530377567 ], [ -10859499.377356108278036, 3005496.462609370239079 ], [ -10859499.377356108278036, 3005496.462609370239079 ], [ -10859500.316158389672637, 3005489.944953141734004 ], [ -10859500.837192628532648, 3005483.380173711106181 ], [ -10859450.571581611409783, 3005476.673100064042956 ], [ -10859450.221411094069481, 3005519.371146395336837 ] ] ] ] } },
{ "type": "Feature", "properties": { "Layer": "PLAT-HATCH-LOTS-S2", "PaperSpace": null, "SubClasses": "AcDbEntity:AcDbHatch", "Linetype": null, "EntityHandle": "11BB", "Text": "ANSI31" }, "geometry": { "type": "MultiPolygon", "coordinates": [ [ [ [ -10859451.807563437148929, 3005553.929124416317791 ], [ -10859499.203820465132594, 3005551.342372015118599 ], [ -10859497.718082990497351, 3005523.82322656409815 ], [ -10859497.718082990497351, 3005523.82322656409815 ], [ -10859497.543653709813952, 3005517.294562930706888 ], [ -10859450.221411094069481, 3005519.371146395336837 ], [ -10859450.184550080448389, 3005523.865786937065423 ], [ -10859451.807563437148929, 3005553.929124416317791 ] ] ] ] } },
{ "type": "Feature", "properties": { "Layer": "PLAT-HATCH-LOTS-S2", "PaperSpace": null, "SubClasses": "AcDbEntity:AcDbHatch", "Linetype": null, "EntityHandle": "11C5", "Text": "ANSI31" }, "geometry": { "type": "MultiPolygon", "coordinates": [ [ [ [ -10859453.143131891265512, 3005578.668025108519942 ], [ -10859453.26907922513783, 3005587.222319082356989 ], [ -10859500.967871567234397, 3005585.38498112000525 ], [ -10859500.967871567234397, 3005585.38498112000525 ], [ -10859500.549837099388242, 3005576.273531458806247 ], [ -10859499.203820465132594, 3005551.342372015118599 ], [ -10859451.807563437148929, 3005553.929124416317791 ], [ -10859453.143131891265512, 3005578.668025108519942 ] ] ] ] } },
{ "type": "Feature", "properties": { "Layer": "PLAT-HATCH-LOTS-S2", "PaperSpace": null, "SubClasses": "AcDbEntity:AcDbHatch", "Linetype": null, "EntityHandle": "11CD", "Text": "ANSI31" }, "geometry": { "type": "MultiPolygon", "coordinates": [ [ [ [ -10859453.75432294420898, 3005620.179834963753819 ], [ -10859501.277359988540411, 3005619.472424228675663 ], [ -10859501.277359988540411, 3005619.472424228675663 ], [ -10859500.967871567234397, 3005585.38498112000525 ], [ -10859453.26907922513783, 3005587.222319082356989 ], [ -10859453.75432294420898, 3005620.179834963753819 ] ] ] ] } },
{ "type": "Feature", "properties": { "Layer": "PLAT-HATCH-LOTS-S2", "PaperSpace": null, "SubClasses": "AcDbEntity:AcDbHatch", "Linetype": null, "EntityHandle": "11D5", "Text": "ANSI31" }, "geometry": { "type": "MultiPolygon", "coordinates": [ [ [ [ -10859454.255143558606505, 3005654.195244675967842 ], [ -10859499.609820129349828, 3005653.520113283302635 ], [ -10859499.609820127487183, 3005653.520113283302635 ], [ -10859501.277359988540411, 3005619.472424228675663 ], [ -10859453.75432294420898, 3005620.179834963753819 ], [ -10859454.255143558606505, 3005654.195244675967842 ] ] ] ] } },
{ "type": "Feature", "properties": { "Layer": "PLAT-HATCH-LOTS-S2", "PaperSpace": null, "SubClasses": "AcDbEntity:AcDbHatch", "Linetype": null, "EntityHandle": "11DE", "Text": "ANSI31" }, "geometry": { "type": "MultiPolygon", "coordinates": [ [ [ [ -10859454.754271704703569, 3005688.09562055580318 ], [ -10859495.995121404528618, 3005687.481730543542653 ], [ -10859495.995121404528618, 3005687.481730543542653 ], [ -10859496.350885877385736, 3005684.583791465498507 ], [ -10859496.35088587552309, 3005684.583791465498507 ], [ -10859499.609820129349828, 3005653.520113283302635 ], [ -10859454.255143558606505, 3005654.195244675967842 ], [ -10859454.754271704703569, 3005688.09562055580318 ] ] ] ] } },
{ "type": "Feature", "properties": { "Layer": "PLAT-HATCH-LOTS-S2", "PaperSpace": null, "SubClasses": "AcDbEntity:AcDbHatch", "Linetype": null, "EntityHandle": "11E6", "Text": "ANSI31" }, "geometry": { "type": "MultiPolygon", "coordinates": [ [ [ [ -10859455.30851711705327, 3005725.739419766236097 ], [ -10859495.827500278130174, 3005721.503502927254885 ], [ -10859495.827500278130174, 3005721.503502927254885 ], [ -10859495.180076638236642, 3005713.007164227310568 ], [ -10859494.992062773555517, 3005704.48802814213559 ], [ -10859495.264011649414897, 3005695.971188065595925 ], [ -10859495.995121404528618, 3005687.481730543542653 ], [ -10859454.754271704703569, 3005688.09562055580318 ], [ -10859455.30851711705327, 3005725.739419766236097 ] ] ] ] } },
{ "type": "Feature", "properties": { "Layer": "PLAT-HATCH-LOTS-S2", "PaperSpace": null, "SubClasses": "AcDbEntity:AcDbHatch", "Linetype": null, "EntityHandle": "11F0", "Text": "ANSI31" }, "geometry": { "type": "MultiPolygon", "coordinates": [ [ [ [ -10859462.477553613483906, 3005763.876675515435636 ], [ -10859502.183165745809674, 3005754.951617002487183 ], [ -10859498.752289798110723, 3005739.522005712613463 ], [ -10859498.752289798110723, 3005739.522005712613463 ], [ -10859497.029191318899393, 3005730.555530822835863 ], [ -10859495.827500278130174, 3005721.503502927254885 ], [ -10859455.30851711705327, 3005725.739419766236097 ], [ -10859455.401476683095098, 3005732.053131355904043 ], [ -10859462.477553613483906, 3005763.876675515435636 ] ] ] ] } },
{ "type": "Feature", "properties": { "Layer": "PLAT-HATCH-LOTS-S2", "PaperSpace": null, "SubClasses": "AcDbEntity:AcDbHatch", "Linetype": null, "EntityHandle": "11FA", "Text": "ANSI31" }, "geometry": { "type": "MultiPolygon", "coordinates": [ [ [ [ -10859516.067470133304596, 3005499.447531460318714, 0.0 ], [ -10859515.332794716581702, 3005504.263205079827458, 0.0 ], [ -10859515.332794716581702, 3005504.263205079827458, 0.0 ], [ -10859551.324131404981017, 3005506.347749681212008, 0.0 ], [ -10859551.324131406843662, 3005506.347749681212008, 0.0 ], [ -10859551.344818146899343, 3005494.406429701019078, 0.0 ], [ -10859551.807576574385166, 3005482.474169412162155, 0.0 ], [ -10859517.960420763120055, 3005480.513815125450492, 0.0 ], [ -10859517.768951455131173, 3005484.18483221065253, 0.0 ], [ -10859517.768951455131173, 3005484.18483221065253, 0.0 ], [ -10859517.162723770365119, 3005491.843735356815159, 0.0 ], [ -10859516.067470133304596, 3005499.447531460318714, 0.0 ] ] ] ] } },
{ "type": "Feature", "properties": { "Layer": "PLAT-HATCH-LOTS-S2", "PaperSpace": null, "SubClasses": "AcDbEntity:AcDbHatch", "Linetype": null, "EntityHandle": "1204", "Text": "ANSI31" }, "geometry": { "type": "MultiPolygon", "coordinates": [ [ [ [ -10859514.645286962389946, 3005522.89935937197879 ], [ -10859514.92724746838212, 3005528.121781440917403 ], [ -10859552.167104365304112, 3005526.089181168470532 ], [ -10859551.747765466570854, 3005518.322730494197458 ], [ -10859551.747765466570854, 3005518.322730494197458 ], [ -10859551.324131404981017, 3005506.347749681212008 ], [ -10859515.332794716581702, 3005504.263205079827458 ], [ -10859515.332794716581702, 3005504.263205079827458 ], [ -10859514.727450681850314, 3005510.457379933912307 ], [ -10859514.497997961938381, 3005516.677110771648586 ], [ -10859514.645286962389946, 3005522.89935937197879 ] ] ] ] } },
{ "type": "Feature", "properties": { "Layer": "PLAT-HATCH-LOTS-S2", "PaperSpace": null, "SubClasses": "AcDbEntity:AcDbHatch", "Linetype": null, "EntityHandle": "120C", "Text": "ANSI31" }, "geometry": { "type": "MultiPolygon", "coordinates": [ [ [ [ -10859516.198664177209139, 3005551.670710087288171 ], [ -10859553.438597632572055, 3005549.638102278113365 ], [ -10859552.167104365304112, 3005526.089181168470532 ], [ -10859514.92724746838212, 3005528.121781440917403 ], [ -10859516.198664177209139, 3005551.670710087288171 ] ] ] ] } },
{ "type": "Feature", "properties": { "Layer": "PLAT-HATCH-LOTS-S2", "PaperSpace": null, "SubClasses": "AcDbEntity:AcDbHatch", "Linetype": null, "EntityHandle": "1214", "Text": "ANSI31" }, "geometry": { "type": "MultiPolygon", "coordinates": [ [ [ [ -10859517.466721760109067, 3005575.1573820207268 ], [ -10859554.70673156902194, 3005573.124766691122204 ], [ -10859553.438597632572055, 3005549.638102278113365 ], [ -10859516.198664177209139, 3005551.670710087288171 ], [ -10859517.466721760109067, 3005575.1573820207268 ] ] ] ] } },
{ "type": "Feature", "properties": { "Layer": "PLAT-HATCH-LOTS-S2", "PaperSpace": null, "SubClasses": "AcDbEntity:AcDbHatch", "Linetype": null, "EntityHandle": "121C", "Text": "ANSI31" }, "geometry": { "type": "MultiPolygon", "coordinates": [ [ [ [ -10859518.291532339528203, 3005599.624774918425828 ], [ -10859555.582995204254985, 3005599.117441348265857 ], [ -10859555.582995204254985, 3005599.117441348265857 ], [ -10859554.70673156902194, 3005573.124766691122204 ], [ -10859517.466754280030727, 3005575.15738024096936 ], [ -10859517.466754280030727, 3005575.15738024096936 ], [ -10859518.291532339528203, 3005599.624774918425828 ] ] ] ] } },
{ "type": "Feature", "properties": { "Layer": "PLAT-HATCH-LOTS-S2", "PaperSpace": null, "SubClasses": "AcDbEntity:AcDbHatch", "Linetype": null, "EntityHandle": "1224", "Text": "ANSI31" }, "geometry": { "type": "MultiPolygon", "coordinates": [ [ [ [ -10859518.141842382028699, 3005623.486519898753613 ], [ -10859555.424040820449591, 3005624.466675383970141 ], [ -10859555.424040820449591, 3005624.466675383970141 ], [ -10859555.582995204254985, 3005599.117441348265857 ], [ -10859518.291532339528203, 3005599.624774918425828 ], [ -10859518.291532339528203, 3005599.624774918425828 ], [ -10859518.141842382028699, 3005623.486519898753613 ] ] ] ] } },
{ "type": "Feature", "properties": { "Layer": "PLAT-HATCH-LOTS-S2", "PaperSpace": null, "SubClasses": "AcDbEntity:AcDbHatch", "Linetype": null, "EntityHandle": "122C", "Text": "ANSI31" }, "geometry": { "type": "MultiPolygon", "coordinates": [ [ [ [ -10859517.050990188494325, 3005647.323560155462474 ], [ -10859554.265253961086273, 3005649.789669962599874 ], [ -10859554.265253961086273, 3005649.789669962599874 ], [ -10859555.424040820449591, 3005624.466675383970141 ], [ -10859518.141842382028699, 3005623.486519898753613 ], [ -10859518.141842382028699, 3005623.486519898753613 ], [ -10859517.050990188494325, 3005647.323560155462474 ] ] ] ] } },
{ "type": "Feature", "properties": { "Layer": "PLAT-HATCH-LOTS-S2", "PaperSpace": null, "SubClasses": "AcDbEntity:AcDbHatch", "Linetype": null, "EntityHandle": "1234", "Text": "ANSI31" }, "geometry": { "type": "MultiPolygon", "coordinates": [ [ [ [ -10859515.020687654614449, 3005671.098383649252355 ], [ -10859552.108452813699841, 3005675.046574580483139 ], [ -10859552.108452813699841, 3005675.046574580483139 ], [ -10859554.265253961086273, 3005649.789669962599874 ], [ -10859517.050990188494325, 3005647.323560155462474 ], [ -10859517.050990188494325, 3005647.323560155462474 ], [ -10859515.020687654614449, 3005671.098383649252355 ] ] ] ] } },
{ "type": "Feature", "properties": { "Layer": "PLAT-HATCH-LOTS-S2", "PaperSpace": null, "SubClasses": "AcDbEntity:AcDbHatch", "Linetype": null, "EntityHandle": "123F", "Text": "ANSI31" }, "geometry": { "type": "MultiPolygon", "coordinates": [ [ [ [ -10859513.146739289164543, 3005686.895304240752012, 0.0 ], [ -10859512.331671047955751, 3005694.807064201217145, 0.0 ], [ -10859512.331671047955751, 3005694.807064201217145, 0.0 ], [ -10859549.077437711879611, 3005699.710001213010401, 0.0 ], [ -10859549.894461845979095, 3005693.519837246276438, 0.0 ], [ -10859550.117725471034646, 3005691.828285208437592, 0.0 ], [ -10859550.117725471034646, 3005691.828285208437592, 0.0 ], [ -10859552.108452813699841, 3005675.046574580483139, 0.0 ], [ -10859515.020687654614449, 3005671.098383649252355, 0.0 ], [ -10859515.020687654614449, 3005671.098383649252355, 0.0 ], [ -10859513.146739289164543, 3005686.895304240752012, 0.0 ] ] ] ] } },
{ "type": "Feature", "properties": { "Layer": "PLAT-HATCH-LOTS-S2", "PaperSpace": null, "SubClasses": "AcDbEntity:AcDbHatch", "Linetype": null, "EntityHandle": "1249", "Text": "ANSI31" }, "geometry": { "type": "MultiPolygon", "coordinates": [ [ [ [ -10859514.779947049915791, 3005733.380728848278522, 0.0 ], [ -10859520.831595674157143, 3005737.260633090045303, 0.0 ], [ -10859532.684472862631083, 3005734.596294476650655, 0.0 ], [ -10859532.684472862631083, 3005734.596294478978962, 0.0 ], [ -10859534.636615259572864, 3005734.217539020814002, 0.0 ], [ -10859536.607481637969613, 3005733.954480250831693, 0.0 ], [ -10859538.590295044705272, 3005733.808022707700729, 0.0 ], [ -10859540.57823745533824, 3005733.778669989667833, 0.0 ], [ -10859542.564473206177354, 3005733.866523023694754, 0.0 ], [ -10859544.542172504588962, 3005734.071279730182141, 0.0 ], [ -10859549.077437711879611, 3005699.710001213010401, 0.0 ], [ -10859512.331671047955751, 3005694.807064201217145, 0.0 ], [ -10859512.331671047955751, 3005694.807064201217145, 0.0 ], [ -10859511.944620724767447, 3005704.49130554497242, 0.0 ], [ -10859512.225078, 3005714.179266409948468, 0.0 ], [ -10859513.171699402853847, 3005723.824491144157946, 0.0 ], [ -10859514.779947049915791, 3005733.380728848278522, 0.0 ] ] ] ] } }
]
}
