{
"type": "FeatureCollection",
"name": "SHADE-SIDEWALK",
"crs": { "type": "name", "properties": { "name": "urn:ogc:def:crs:EPSG::3857" } },
"features": [
{ "type": "Feature", "properties": { "Layer": "SHADE-SIDEWALK", "PaperSpace": null, "SubClasses": "AcDbEntity:AcDbHatch", "Linetype": null, "EntityHandle": "92BE", "Text": "SOLID" }, "geometry": { "type": "MultiPolygon", "coordinates": [ [ [ [ -10859510.198500385507941, 3005762.506994150578976, 0.0 ], [ -10859504.631102796643972, 3005738.352429050020874, 0.0 ], [ -10859502.858186170458794, 3005729.496915522962809, 0.0 ], [ -10859501.600343124940991, 3005720.552749214228243, 0.0 ], [ -10859500.894979065284133, 3005712.153906412422657, 0.0 ], [ -10859500.64384937658906, 3005703.728961997199804, 0.0 ], [ -10859500.847692959010601, 3005695.302731932606548, 0.0 ], [ -10859501.505908567458391, 3005686.900035875849426, 0.0 ], [ -10859501.827072182670236, 3005684.099901985842735, 0.0 ], [ -10859504.863122098147869, 3005652.851525778416544, 0.0 ], [ -10859506.271420182660222, 3005618.692508297972381, 0.0 ], [ -10859505.696677012369037, 3005584.509122218005359, 0.0 ], [ -10859505.194900117814541, 3005575.181856799870729, 0.0 ], [ -10859501.96948628500104, 3005522.947586204856634, 0.0 ], [ -10859501.74778600782156, 3005516.513656769879162, 0.0 ], [ -10859501.898259487003088, 3005509.635932815261185, 0.0 ], [ -10859502.448441790416837, 3005502.778824982233346, 0.0 ], [ -10859503.396449780091643, 3005495.96579613070935, 0.0 ], [ -10859504.299634367227554, 3005489.3322131074965, 0.0 ], [ -10859504.776289124041796, 3005482.653939017094672, 0.0 ], [ -10859503.082399429753423, 3005482.586742330808192, 0.0 ], [ -10859502.61355790309608, 3005489.155536405742168, 0.0 ], [ -10859501.725178861990571, 3005495.68037195596844, 0.0 ], [ -10859500.763430818915367, 3005502.592140125110745, 0.0 ], [ -10859500.205274034291506, 3005509.548626199364662, 0.0 ], [ -10859500.052618943154812, 3005516.526027273852378, 0.0 ], [ -10859500.277531484141946, 3005523.053202118724585, 0.0 ], [ -10859503.502938976511359, 3005575.287471713498235, 0.0 ], [ -10859504.003255749121308, 3005584.587616483215243, 0.0 ], [ -10859504.576323658227921, 3005618.671608126722276, 0.0 ], [ -10859503.172116389498115, 3005652.731301540974528, 0.0 ], [ -10859500.144833143800497, 3005683.889280487783253, 0.0 ], [ -10859499.820144278928638, 3005686.720147008541971, 0.0 ], [ -10859499.154703728854656, 3005695.215062669478357, 0.0 ], [ -10859498.948621939867735, 3005703.733770738821477, 0.0 ], [ -10859499.202506760135293, 3005712.25117915449664, 0.0 ], [ -10859499.915611196309328, 3005720.742199601139873, 0.0 ], [ -10859501.187258046120405, 3005729.784528626129031, 0.0 ], [ -10859502.979631459340453, 3005738.737232021521777, 0.0 ], [ -10859508.547025775536895, 3005762.891795836389065, 0.0 ], [ -10859510.198500385507941, 3005762.506994150578976, 0.0 ] ], [ [ -10859546.836572770029306, 3005748.150840811431408, 0.0 ], [ -10859546.836527543142438, 3005748.150835135020316, 0.0 ], [ -10859545.747953889891505, 3005748.046725120395422, 0.0 ], [ -10859544.65518250502646, 3005748.006947014015168, 0.0 ], [ -10859543.561970964074135, 3005748.031637599226087, 0.0 ], [ -10859542.472078351303935, 3005748.120711973402649, 0.0 ], [ -10859541.389252347871661, 3005748.273863846901804, 0.0 ], [ -10859540.317216329276562, 3005748.490566601511091, 0.0 ], [ -10859527.801226764917374, 3005751.406876919325441, 0.0 ], [ -10859525.972245682030916, 3005754.355241172015667, 0.0 ], [ -10859524.263304719701409, 3005753.283556462731212, 0.0 ], [ -10859523.369379805400968, 3005754.731791294179857, 0.0 ], [ -10859525.075102781876922, 3005755.801458144560456, 0.0 ], [ -10859523.251754293218255, 3005758.74074123846367, 0.0 ], [ -10859523.410294022411108, 3005759.42857399629429, 0.0 ], [ -10859525.061767822131515, 3005759.043770647607744, 0.0 ], [ -10859528.868011098355055, 3005752.90794187085703, 0.0 ], [ -10859540.699939558282495, 3005750.151021785102785, 0.0 ], [ -10859541.674517869949341, 3005749.954019231721759, 0.0 ], [ -10859542.658905260264874, 3005749.814790221862495, 0.0 ], [ -10859543.649716842919588, 3005749.733813500963151, 0.0 ], [ -10859544.64354563690722, 3005749.711367508862168, 0.0 ], [ -10859545.636974288150668, 3005749.747529431246221, 0.0 ], [ -10859546.626586819067597, 3005749.842174923047423, 0.0 ], [ -10859546.626632045954466, 3005749.84218059759587, 0.0 ], [ -10859546.836572770029306, 3005748.150840811431408, 0.0 ] ] ] ] } }
]
}
