<?xml version="1.0" encoding="utf-8" ?>
<kml xmlns="http://www.opengis.net/kml/2.2">
<Document id="root_doc">
<Schema name="SHADE_ASPHALT" id="SHADE_ASPHALT">
	<SimpleField name="Layer" type="string"></SimpleField>
	<SimpleField name="PaperSpace" type="int"></SimpleField>
	<SimpleField name="SubClasses" type="string"></SimpleField>
	<SimpleField name="Linetype" type="string"></SimpleField>
	<SimpleField name="EntityHandle" type="string"></SimpleField>
	<SimpleField name="Text" type="string"></SimpleField>
</Schema>
<Folder><name>SHADE_ASPHALT</name>
  <Placemark id="SHADE_ASPHALT.1">
	<Style><LineStyle><color>ff0000ff</color></LineStyle><PolyStyle><fill>0</fill></PolyStyle></Style>
	<ExtendedData><SchemaData schemaUrl="#SHADE_ASPHALT">
		<SimpleData name="Layer">SHADE-ASPHALT</SimpleData>
		<SimpleData name="SubClasses">AcDbEntity:AcDbHatch</SimpleData>
		<SimpleData name="EntityHandle">929D</SimpleData>
		<SimpleData name="Text">SOLID</SimpleData>
	</SchemaData></ExtendedData>
      <MultiGeometry><Polygon><outerBoundaryIs><LinearRing><coordinates>-97.552630064669,26.0539349191032,0 -97.5525817334615,26.0537396376156,0 -97.5525665309855,26.0536684806398,0 -97.5525559684069,26.0535966415573,0 -97.5525500819795,26.0535243670016,0 -97.5525488919033,26.0534519051009,0 -97.5525524022552,26.0533795046259,0 -97.5525606009746,26.0533074141363,0 -97.5525933931306,26.0530143648857,0 -97.5526060629116,26.052720044918,0 -97.5525985619905,26.0524255804943,0 -97.5525732220164,26.0520038382878,0 -97.5525717105438,26.0519501771572,0 -97.5525736194005,26.0518965263599,0 -97.5525789422582,26.0518430636277,0 -97.5525876614789,26.0517899660696,0 -97.5525946013133,26.0517489915841,0 -97.5525993359908,26.0517077615747,0 -97.5526018544007,26.0516663728151,0 -97.5526865531119,26.051668822525,0 -97.5526842945332,26.0517139239182,0 -97.5526793124623,26.0517588465832,0 -97.5526716217668,26.0518034564328,0 -97.5526633878046,26.0518521470123,0 -97.552658425286,26.051901197978,0 -97.5526567523425,26.0519504301527,0 -97.5526583750894,26.0519996636971,0 -97.5526837153827,26.0524214059681,0 -97.5526914020939,26.0527204166532,0 -97.5526785608391,26.0530192829612,0 -97.5526452408157,26.0533168561215,0 -97.5526375281346,26.0533845661536,0 -97.5526342150187,26.0534525678209,0 -97.55263531283,26.0535206280826,0 -97.5526408178141,26.0535885136966,0 -97.5526507111132,26.0536559920189,0 -97.5526649588309,26.053722831801,0 -97.5526661118986,26.0537274907471,0 -97.5526670005741,26.0537305816813,0 -97.552668120699,26.0537336106304,0 -97.5526694670506,26.0537365634722,0 -97.5526710333519,26.0537394264391,0 -97.5526728122998,26.0537421861826,0 -97.5526747956002,26.0537448298356,0 -97.552676974006,26.053747345072,0 -97.5526793373604,26.0537497201647,0 -97.5526818746445,26.0537519440399,0 -97.5526845740283,26.0537540063288,0 -97.5526874229259,26.0537558974162,0 -97.5526904080545,26.0537576084847,0 -97.5526935154959,26.0537591315568,0 -97.552696730762,26.0537604595311,0 -97.5527000388616,26.0537615862159,0 -97.5527034243708,26.0537625063581,0 -97.5527068715048,26.0537632156677,0 -97.5527103641915,26.0537637108374,0 -97.5527138861462,26.0537639895585,0 -97.5527174209481,26.0537640505316,0 -97.5527209521161,26.0537638934723,0 -97.5527244631865,26.0537635191129,0 -97.5527279377888,26.0537629291989,0 -97.5528611648147,26.0537360263129,0 -97.5528767721713,26.0537333060249,0 -97.5528925292158,26.053731416737,0 -97.5529083817663,26.0537303649455,0 -97.552924275313,26.0537301542671,0 -97.5529401552048,26.0537307854263,0 -97.5529559668378,26.0537322562526,0 -97.5529447471536,26.0538086173878,0 -97.5529339099598,26.0538076092926,0 -97.5529230259817,26.0538071767001,0 -97.5529121326446,26.0538073210978,0 -97.552901267406,26.053808041989,0 -97.5528904676269,26.0538093368951,0 -97.552879770443,26.0538112013634,0 -97.5527465433335,26.0538381042675,0 -97.5527431213973,26.0538389069861,0 -97.5527397680838,26.053839918766,0 -97.5527364990279,26.05384113489,0 -97.5527333294713,26.0538425496878,0 -97.552730274192,26.0538441565631,0 -97.552727347435,26.0538459480238,0 -97.5527245628463,26.0538479157174,0 -97.5527219334089,26.0538500504695,0 -97.5527194713825,26.053852342327,0 -97.5527171882461,26.0538547806041,0 -97.5527150946448,26.0538573539326,0 -97.5527132003399,26.0538600503143,0 -97.5527115141636,26.0538628571776,0 -97.5527100439776,26.0538657614355,0 -97.5527087966366,26.053868749547,0 -97.5527077779563,26.0538718075802,0 -97.5527069926863,26.0538749212771,0 -97.5527064444879,26.0538780761203,0 -97.552706135917,26.0538812574004,0 -97.5527060684124,26.0538844502848,0 -97.5527062422888,26.0538876398868,0 -97.5527066567356,26.053890811335,0 -97.5527073098204,26.0538939498427,0 -97.5527132901739,26.0539181132592,0 -97.552630064669,26.0539349191032,0</coordinates></LinearRing></outerBoundaryIs></Polygon></MultiGeometry>
  </Placemark>
</Folder>
</Document></kml>
