<?xml version="1.0" encoding="utf-8" ?>
<kml xmlns:gx="http://www.google.com/kml/ext/2.2" xmlns="http://www.opengis.net/kml/2.2">
<Document id="root_doc">
<Schema name="SHADE_SIDEWALK" id="SHADE_SIDEWALK">
	<SimpleField name="Layer" type="string"></SimpleField>
	<SimpleField name="PaperSpace" type="int"></SimpleField>
	<SimpleField name="SubClasses" type="string"></SimpleField>
	<SimpleField name="Linetype" type="string"></SimpleField>
	<SimpleField name="EntityHandle" type="string"></SimpleField>
	<SimpleField name="Text" type="string"></SimpleField>
</Schema>
<Folder><name>SHADE_SIDEWALK</name>
  <Placemark>
	<styleUrl>https://lagobello.github.io/lagobello-drawings/web/styles.kml#defaultStyle</styleUrl>
	<ExtendedData><SchemaData schemaUrl="#SHADE_SIDEWALK">
		<SimpleData name="Layer">SHADE-SIDEWALK</SimpleData>
		<SimpleData name="SubClasses">AcDbEntity:AcDbHatch</SimpleData>
		<SimpleData name="EntityHandle">92BE</SimpleData>
		<SimpleData name="Text">SOLID</SimpleData>
	</SchemaData></ExtendedData>
      <MultiGeometry><Polygon><altitudeMode>relativeToGround</altitudeMode><outerBoundaryIs><LinearRing><coordinates>-97.5526398936471,26.0539345795677,1 -97.5525898808637,26.0537396449692,1 -97.5525739544827,26.0536681782328,1 -97.5525626550863,26.0535959959968,1 -97.5525563186932,26.0535282146526,1 -97.5525540627568,26.0534602226207,1 -97.5525558939148,26.0533922201736,1 -97.5525618067663,26.0533244076145,1 -97.5525646918281,26.0533018095916,1 -97.5525919651285,26.0530496243827,1 -97.5526046160855,26.0527739486707,1 -97.5525994530797,26.052498075646,1 -97.5525949455412,26.0524228009272,1 -97.5525659711557,26.0520012488225,1 -97.5525639795883,26.0519493242538,1 -97.5525653313145,26.0518938180476,1 -97.5525702736863,26.0518384781963,1 -97.5525787897869,26.0517834940557,1 -97.5525869032321,26.0517299580971,1 -97.5525911850946,26.051676061437,1 -97.5525759686246,26.0516755191296,1 -97.5525717569495,26.0517285322373,1 -97.5525637765048,26.0517811905564,1 -97.5525551369752,26.0518369715677,1 -97.5525501229674,26.0518931134453,1 -97.5525487516434,26.0519494240891,1 -97.5525507720672,26.052002101188,1 -97.5525797463957,26.0524236532816,1 -97.5525842408177,26.0524987091256,1 -97.5525893887743,26.0527737799985,1 -97.5525767745658,26.0530486541304,1 -97.5525495800177,26.053300109805,1 -97.552546663288,26.0533229558509,1 -97.5525406855338,26.0533915126537,1 -97.5525388342696,26.0534602614288,1 -97.5525411149558,26.0535289996749,1 -97.5525475208819,26.0535975249215,1 -97.5525589442799,26.0536704993603,1 -97.5525750454442,26.0537427504473,1 -97.5526250581983,26.0539376850303,1 -97.5526398936471,26.0539345795677,1</coordinates></LinearRing></outerBoundaryIs><innerBoundaryIs><LinearRing><coordinates>-97.5529690190512,26.0538187211355,1 -97.5529690186449,26.0538187210897,1 -97.5529592398214,26.0538178808904,1 -97.552949423289,26.0538175598691,1 -97.5529396028027,26.0538177591296,1 -97.5529298121308,26.0538184779867,1 -97.5529200849393,26.0538197139685,1 -97.5529104546758,26.0538214628251,1 -97.5527980216286,26.0538449983264,1 -97.552781591612,26.0538687925079,1 -97.5527662399342,26.0538601436923,1 -97.55275820967,26.0538718313797,1 -97.5527735324402,26.0538804639097,1 -97.5527571530221,26.0539041847963,1 -97.5527585772087,26.05390973581,1 -97.5527734126503,26.0539066303333,1 -97.5528076047153,26.0538571123702,1 -97.5529138927371,26.0538348631984,1 -97.552922647523,26.0538332733285,1 -97.5529314904254,26.0538321497085,1 -97.5529403910373,26.053831496202,1 -97.5529493187533,26.0538313150561,1 -97.5529582428747,26.0538316068937,1 -97.5529671327153,26.0538323707113,1 -97.5529671331216,26.0538323707571,1 -97.5529690190512,26.0538187211355,1</coordinates></LinearRing></innerBoundaryIs></Polygon></MultiGeometry>
  </Placemark>
</Folder>
</Document></kml>
