{
"type": "FeatureCollection",
"name": "SHADE-ASPHALT",
"crs": { "type": "name", "properties": { "name": "urn:ogc:def:crs:EPSG::3857" } },
"features": [
{ "type": "Feature", "properties": { "Layer": "SHADE-ASPHALT", "PaperSpace": null, "SubClasses": "AcDbEntity:AcDbHatch", "Linetype": null, "EntityHandle": "929D", "Text": "SOLID" }, "geometry": { "type": "MultiPolygon", "coordinates": [ [ [ [ -10859509.104343540966511, 3005762.549066412262619, 0.0 ], [ -10859503.72413813509047, 3005738.351517866365612, 0.0 ], [ -10859502.031806252896786, 3005729.534387063235044, 0.0 ], [ -10859500.855985373258591, 3005720.632741174194962, 0.0 ], [ -10859500.200711272656918, 3005711.677140919025987, 0.0 ], [ -10859500.068232601508498, 3005702.698332124389708, 0.0 ], [ -10859500.459003180265427, 3005693.727140197530389, 0.0 ], [ -10859501.37168045155704, 3005684.79436426050961, 0.0 ], [ -10859505.022086564451456, 3005648.482511913403869, 0.0 ], [ -10859506.432480126619339, 3005612.013295872602612, 0.0 ], [ -10859505.597481410950422, 3005575.526271925773472, 0.0 ], [ -10859502.776648404076695, 3005523.268444734159857, 0.0 ], [ -10859502.608392035588622, 3005516.619339290540665, 0.0 ], [ -10859502.820884991437197, 3005509.971517270430923, 0.0 ], [ -10859503.413422806188464, 3005503.347001270391047, 0.0 ], [ -10859504.384042009711266, 3005496.767736626323313, 0.0 ], [ -10859505.156580843031406, 3005491.690631662495434, 0.0 ], [ -10859505.683642731979489, 3005486.581866801250726, 0.0 ], [ -10859505.963990844786167, 3005481.453433180693537, 0.0 ], [ -10859515.392608236521482, 3005481.756973869167268, 0.0 ], [ -10859515.141184413805604, 3005487.345435844734311, 0.0 ], [ -10859514.586582820862532, 3005492.911753962747753, 0.0 ], [ -10859513.730458505451679, 3005498.439313572365791, 0.0 ], [ -10859512.813858034089208, 3005504.472514555323869, 0.0 ], [ -10859512.261432982981205, 3005510.550373148638755, 0.0 ], [ -10859512.075201762840152, 3005516.650687734596431, 0.0 ], [ -10859512.255845129489899, 3005522.751174607314169, 0.0 ], [ -10859515.076713668182492, 3005575.009007939137518, 0.0 ], [ -10859515.93239444680512, 3005612.059357567224652, 0.0 ], [ -10859514.502912500873208, 3005649.091911902185529, 0.0 ], [ -10859510.793744469061494, 3005685.964326019398868, 0.0 ], [ -10859509.935172732919455, 3005694.354317342862487, 0.0 ], [ -10859509.566358363255858, 3005702.780450242571533, 0.0 ], [ -10859509.688566152006388, 3005711.213848509360105, 0.0 ], [ -10859510.301378177478909, 3005719.625610927119851, 0.0 ], [ -10859511.402695203199983, 3005727.986910324078053, 0.0 ], [ -10859512.98874387703836, 3005736.269092369358987, 0.0 ], [ -10859513.117102786898613, 3005736.846387069206685, 0.0 ], [ -10859513.21602969057858, 3005737.229387838859111, 0.0 ], [ -10859513.340721420943737, 3005737.604707996826619, 0.0 ], [ -10859513.490596603602171, 3005737.970597621519119, 0.0 ], [ -10859513.664956457912922, 3005738.325350766070187, 0.0 ], [ -10859513.862988036125898, 3005738.667313405778259, 0.0 ], [ -10859514.083768025040627, 3005738.994891149923205, 0.0 ], [ -10859514.326267048716545, 3005739.306556678377092, 0.0 ], [ -10859514.589354464784265, 3005739.600856858771294, 0.0 ], [ -10859514.87180363945663, 3005739.8764195330441, 0.0 ], [ -10859515.172297662124038, 3005740.131959886290133, 0.0 ], [ -10859515.48943549208343, 3005740.366286478936672, 0.0 ], [ -10859515.821738485246897, 3005740.578306763898581, 0.0 ], [ -10859516.167657289654016, 3005740.767032207921147, 0.0 ], [ -10859516.525579070672393, 3005740.931582884863019, 0.0 ], [ -10859516.893835032358766, 3005741.071191574912518, 0.0 ], [ -10859517.270708195865154, 3005741.185207361821085, 0.0 ], [ -10859517.654441397637129, 3005741.273098646197468, 0.0 ], [ -10859518.043245494365692, 3005741.3344556405209, 0.0 ], [ -10859518.435307705774903, 3005741.368992268573493, 0.0 ], [ -10859518.828800046816468, 3005741.376547504682094, 0.0 ], [ -10859519.221887877210975, 3005741.357086122967303, 0.0 ], [ -10859519.612738437950611, 3005741.310698862187564, 0.0 ], [ -10859519.999529398977757, 3005741.237601997330785, 0.0 ], [ -10859534.830294083803892, 3005737.904037660453469, 0.0 ], [ -10859536.567697077989578, 3005737.566964021883905, 0.0 ], [ -10859538.321763237938285, 3005737.332860440947115, 0.0 ], [ -10859540.086461095139384, 3005737.202531893271953, 0.0 ], [ -10859541.85572262108326, 3005737.176426522899419, 0.0 ], [ -10859543.623464092612267, 3005737.254634087905288, 0.0 ], [ -10859545.38360701687634, 3005737.436885674484074, 0.0 ], [ -10859544.134637493640184, 3005746.898874334525317, 0.0 ], [ -10859542.928246598690748, 3005746.773960159160197, 0.0 ], [ -10859541.716647693887353, 3005746.72035714937374, 0.0 ], [ -10859540.504006953909993, 3005746.738249620888382, 0.0 ], [ -10859539.294494127854705, 3005746.827576046343893, 0.0 ], [ -10859538.092268215492368, 3005746.988029276020825, 0.0 ], [ -10859536.901463154703379, 3005747.219057580456138, 0.0 ], [ -10859522.070689167827368, 3005750.552626295946538, 0.0 ], [ -10859521.689760964363813, 3005750.652092061005533, 0.0 ], [ -10859521.316471818834543, 3005750.777462856378406, 0.0 ], [ -10859520.952562175691128, 3005750.928154147230089, 0.0 ], [ -10859520.599728750064969, 3005751.103463342878968, 0.0 ], [ -10859520.259616611525416, 3005751.302573073189706, 0.0 ], [ -10859519.933811517432332, 3005751.524554998613894, 0.0 ], [ -10859519.623832523822784, 3005751.768374141305685, 0.0 ], [ -10859519.331124894320965, 3005752.032893698662519, 0.0 ], [ -10859519.057053362950683, 3005752.316880366764963, 0.0 ], [ -10859518.802895782515407, 3005752.619010069873184, 0.0 ], [ -10859518.569837152957916, 3005752.937874144874513, 0.0 ], [ -10859518.358964096754789, 3005753.271985895466059, 0.0 ], [ -10859518.171259809285402, 3005753.619787548668683, 0.0 ], [ -10859518.007599450647831, 3005753.979657486081123, 0.0 ], [ -10859517.86874608695507, 3005754.349917838349938, 0.0 ], [ -10859517.755347114056349, 3005754.728842270560563, 0.0 ], [ -10859517.667931254953146, 3005755.114664074964821, 0.0 ], [ -10859517.606906084343791, 3005755.505584368947893, 0.0 ], [ -10859517.572556130588055, 3005755.899780503939837, 0.0 ], [ -10859517.565041553229094, 3005756.295414550695568, 0.0 ], [ -10859517.584397388622165, 3005756.690641886088997, 0.0 ], [ -10859517.630533397197723, 3005757.083619775716215, 0.0 ], [ -10859517.703234465792775, 3005757.472515971399844, 0.0 ], [ -10859518.368964374065399, 3005760.466633813921362, 0.0 ], [ -10859509.104343540966511, 3005762.549066412262619, 0.0 ] ] ] ] } }
]
}
